Uncorrected accelerogram 20110613_022049_CACS GNS Science
Site CACS      43 29 05S  172 31 48E     Etna file:  2011.164.0220.43.CACS.01669
Christchurch Canterbury Aero Club
Instrument Etna_1669
Resolution: 18-bit   Instr Period: 0.0200 s   Damping: 0.700
Accelerogram 20110613_022049_CACS                   Processed 2011 June 16
10 km east of Christchurch
2011 June 13        02:20:49 UT
Epicentre  43 33 50S 172 44 35E  Bearing S63E  Dist   19km  Depth   6 km Mw 6.00
Number of points  29000    Duration 144.99 s
Raw readings in units of 1.00 mm/s/s  at intervals of 0.005 s
Data is unfiltered
Component N40E
Acceleration:  Peak  -1213.7 mm/s/s at  17.24 s     RMS    88.33 mm/s/s
Velocity record unevaluated
Displacement record unevaluated
[...]
     2.1     2.7     3.8     5.1     5.6     6.5     7.2     7.5     7.8     7.9
     8.7     9.2     9.2     9.7     9.7    10.2    10.3    10.2    10.9    11.1
    11.5    12.1    12.4    12.5    12.6    12.9    12.8    11.8    10.8    10.1
     9.4     8.2     6.9     6.6     6.0     5.2     5.0     4.9     4.5     4.2
     4.0     3.7     4.0     4.1     3.9     4.1     4.5     4.6     4.4     4.3
     3.8     3.3     3.0     2.8     2.7     2.5     2.0     1.9     2.4     2.2
     1.8     1.8     1.5     1.6     1.4     0.7     0.5     0.1    -0.7    -1.4
    -1.9    -1.9    -2.4    -2.9    -2.5    -2.7    -2.4    -2.1    -1.9    -1.2
    -1.1    -0.3     0.1     0.6     0.7     0.8     1.5     1.4     2.0     2.4
     2.7     3.7     4.4     5.0     6.4     7.3     7.2     7.6     7.5     7.5
     7.3     6.1     5.9     5.1     4.0     3.0     2.2     1.3    -0.7    -1.2
    -2.2    -2.8    -3.5    -4.7    -4.9    -6.1    -6.0    -6.1    -6.6    -6.5
    -7.5    -7.9    -8.4    -8.8    -8.9    -9.1    -8.9    -8.6    -8.1    -7.7
    -6.7    -6.1    -5.9    -5.8    -5.9    -5.9    -6.3    -6.9    -8.0    -8.8
    -9.6   -10.8   -10.7   -10.6   -10.2    -9.7    -8.7    -7.3    -6.4    -4.9
    -3.8    -3.6    -3.2    -3.2    -3.6    -4.1    -4.7    -5.0    -4.9    -4.7
    -4.6    -4.6    -5.0    -5.2    -5.1    -4.9    -4.6    -3.6    -2.9    -2.2
    -1.0    -0.4     0.0    -0.4    -1.4    -1.6    -1.4    -1.0    -1.2    -1.5
    -1.5    -1.9    -2.1    -2.5    -3.6    -3.6    -3.7    -4.0    -3.6    -3.4
    -3.1    -3.1    -2.5    -2.3    -2.0    -1.7    -2.7    -3.2    -3.8    -4.9
    -4.9    -5.3    -5.5    -5.2    -5.0    -4.4    -3.9    -3.7    -3.5    -3.4
    -3.5    -3.7    -4.2    -4.2    -4.3    -5.1    -5.6    -6.1    -6.4    -7.0
    -7.0    -6.7    -6.3    -5.3    -5.3    -4.4    -4.0    -3.5    -2.0    -1.7
    -1.5    -1.7    -2.3    -3.4    -4.6    -5.8    -7.9    -8.3    -8.2    -8.5
    -8.0    -7.6    -6.5    -5.3    -4.8    -4.2    -3.4    -3.3    -3.1    -2.8
    -2.2    -2.1    -2.3    -1.7    -1.8    -1.9    -1.8    -2.1    -1.9    -2.3
    -2.4    -2.3    -2.1    -1.5    -1.4    -1.2    -1.0    -0.8    -0.4    -0.3
     0.0     0.4     0.0    -0.2    -0.5    -1.5    -2.5    -3.7    -4.4    -5.1
    -5.9    -6.0    -6.0    -5.5    -4.9    -4.8    -4.2    -3.9    -3.6    -3.1
    -3.0    -2.8    -2.9    -3.0    -3.0    -3.1    -3.0    -3.7    -3.8    -3.7
    -3.7    -3.0    -3.1    -2.7    -2.0    -2.1    -1.7    -1.4    -1.6    -1.3
    -1.0    -0.8    -0.6    -0.6    -0.4    -0.5    -0.3    -0.3    -0.3     0.1
    -0.2     0.3     0.9     1.3     1.9     2.1     3.1     3.6     4.0     5.0
     5.4     5.8     6.2     5.9     5.9     5.5     4.9     4.6     4.2     3.6
     2.7     2.2     1.5     1.1     1.0     0.4     0.7     0.6     0.3     0.6
     0.5     1.1     1.6     2.4     3.7     4.6     5.6     6.5     6.8     7.0
     6.9     6.2     6.0     5.2     4.4     4.3     3.7     3.6     3.0     2.4
     1.8     0.4    -0.4    -1.5    -2.3    -3.1    -4.3    -4.7    -5.4    -5.6
    -5.7    -6.0    -5.4    -5.2    -5.1    -4.6    -4.4    -4.2    -4.3    -3.9
    -3.8    -4.0    -3.9    -3.8    -3.0    -2.8    -2.7    -2.2    -2.1    -2.4
    -2.6    -2.6    -2.4    -2.4    -2.8    -2.6    -2.5    -3.1    -3.0    -3.7
    -3.7    -3.8    -4.2    -3.7    -4.0    -3.9    -4.1    -3.8    -3.4    -3.8
    -3.4    -3.7    -3.0    -2.5    -2.5    -1.9    -2.1    -1.6    -2.4    -2.7
    -2.7    -3.8    -4.2    -4.4    -4.5    -4.6    -4.8    -4.9    -4.5    -4.0
    -3.8    -3.1    -3.1    -3.0    -3.4    -3.7    -4.2    -5.1    -5.6    -6.7
    -6.7    -7.2    -7.5    -6.9    -7.2    -6.6    -6.4    -5.5    -4.3    -3.9
    -3.5    -3.1    -2.3    -2.6    -2.9    -2.8    -2.9    -3.0    -3.2    -3.1
    -2.7    -2.6    -2.5    -2.2    -2.2    -1.9    -2.0    -2.2    -2.0    -2.5
    -2.6    -2.5    -2.2    -1.7    -1.6    -1.3    -1.1    -0.7    -0.6    -0.4
     0.0    -0.1     0.3     0.2     0.0    -0.1    -0.5    -0.9    -1.6    -2.0
    -2.1    -2.6    -2.8    -2.7    -2.8    -2.3    -1.7    -1.6    -1.2    -0.6
    -0.3     0.2     0.1    -0.2    -0.3    -0.8    -1.2    -2.0    -2.4    -2.9
    -3.4    -3.7    -4.3    -4.3    -4.8    -4.7    -4.5    -6.0    -6.5    -6.4
    -6.0    -6.1    -6.9    -6.9    -7.5    -8.4    -8.2    -8.3    -8.1    -7.5
    -7.2    -6.7    -6.3    -5.9    -5.1    -4.2    -3.8    -3.5    -3.0    -2.4
    -2.1    -2.1    -1.7    -1.5    -1.3    -1.6    -1.7    -1.6    -1.9    -1.7
    -2.3    -2.2    -1.8    -1.8    -1.3    -1.1    -0.6    -0.6    -0.6    -0.2
     0.0    -0.3    -1.1    -1.1    -1.7    -2.1    -2.5    -2.9    -3.0    -3.0
    -3.0    -2.7    -2.2    -2.1    -1.4    -0.6     0.3     1.2     1.2     2.4
     3.2     3.7     4.5     4.8     5.6     5.8     6.2     6.8     7.0     7.3
     7.1     7.3     7.5     7.0     6.7     6.2     6.3     6.1     5.6     6.2
     6.3     6.5     7.1     7.8     8.7     9.0     8.8     9.3    10.5    11.0
    11.6    12.0    12.0    11.8    11.0    10.7    10.7    10.4    10.0     9.9
     9.8     9.2     8.8     8.1     8.2     8.1     7.4     8.0     8.0     8.4
     9.2     9.5    10.5    10.9    11.6    12.6    13.0    13.4    13.7    13.9
    13.4    13.0    12.5    11.7    11.4    11.0    10.4    10.3    10.3    10.2
    10.5    10.8    11.1    11.4    11.3    12.0    12.1    12.4    12.6    12.0
    12.0    11.3    10.7    10.2     9.5     8.7     7.8     7.9     7.5     7.3
     7.1     6.5     6.6     6.1     6.1     6.2     6.3     7.2     7.8     9.1
     9.8    10.6    11.2    11.4    11.5    11.0    10.9    10.2     9.7     9.1
     8.3     7.9     7.2     6.8     6.3     6.4     6.3     6.1     6.2     5.8
     6.2     5.8     5.7     5.9     5.7     5.9     5.7     6.3     6.6     6.8
     7.1     6.9     7.4     6.9     6.8     6.9     6.9     7.2     6.9     7.3
     7.5     7.5     7.8     8.0     8.2     8.0     7.9     7.8     7.7     6.8
     6.3     6.4     5.8     5.3     4.6     4.2     4.3     3.9     4.1     4.1
     4.0     3.9     3.7     4.6     4.9     4.8     5.2     5.5     5.9     5.8
     6.1     6.2     5.9     5.7     5.2     5.5     5.3     4.6     4.4     4.2
     3.8     3.4     2.9     2.6     2.2     1.3     0.4    -0.1    -0.6    -0.9
    -1.3    -1.5    -1.9    -2.1    -2.4    -2.3    -2.0    -2.4    -2.5    -2.5
    -2.5    -2.6    -2.5    -1.7    -1.1    -1.0    -0.2     0.1     0.4     1.1
     1.2     1.6     2.1     2.2     1.8     1.6     1.1    -0.1    -0.3    -1.5
    -2.8    -4.0    -5.8    -6.9    -8.2    -8.9    -9.5    -9.9    -9.4    -9.6
    -9.2    -8.7    -8.2    -8.1    -7.9    -7.5    -7.9    -7.6    -8.8    -9.0
    -9.0   -10.1    -8.9   -11.1    -8.2    -5.6    -8.0    -5.1    -4.9    -4.1
    -1.6    -1.0     0.2     1.2     2.6     3.3     4.6     5.0     5.4     6.1
     5.9     5.3     4.6     4.4     3.7     3.0     2.6     2.0     1.3     0.6
     0.2     0.3    -0.2    -0.7    -0.5    -0.6    -1.0    -1.1    -1.2    -0.5
     0.1     0.2     1.1     2.1     2.3     2.5     3.1     3.3     3.7     4.0
     3.8     4.3     4.8     4.7     4.9     4.7     4.7     4.2     3.4     3.5
     2.8     2.5     2.3     2.1     2.5     2.0     1.9     2.0     1.7     1.4
     0.9     0.6     0.1    -0.1    -0.5    -0.9    -1.5    -2.8    -3.7    -4.1
    -4.7    -5.1    -5.1    -5.0    -4.7    -4.1    -3.9    -3.2    -3.0    -2.8
    -2.0    -1.9    -1.1    -1.0    -1.2    -0.5    -0.5    -0.5    -0.6    -0.4
     0.3     0.5     1.2     1.6     2.3     2.4     2.5     3.5     3.6     3.8
     3.8     3.8     4.2     4.1     3.7     3.2     2.7     2.2     2.1     1.5
     1.4     1.3     1.0     1.5     1.3     1.3     1.3     0.9     1.0     0.8
     0.8     0.8     1.4     1.6     1.4     2.0     1.9     2.0     2.2     1.7
     2.3     1.9     1.5     1.7     1.2     1.1     0.8     0.6     0.5     0.2
     0.6     0.9     1.4     2.3     3.0     3.9     4.5     4.7     5.3     5.3
     5.3     5.5     5.5     6.1     6.0     6.1     5.8     4.9     4.8     3.4
     2.5     1.8     0.6     0.1    -0.5    -0.6    -0.9    -1.1    -1.1    -1.0
    -0.8    -1.4    -1.4    -1.7    -2.3    -2.8    -3.0    -3.0    -3.2    -3.4
    -3.5    -3.2    -3.4    -3.3    -3.1    -3.2    -2.4    -2.4    -2.0    -1.7
    -1.6    -1.5    -1.6    -1.5    -2.0    -1.8    -2.3    -3.0    -3.1    -4.0
    -4.4    -4.7    -5.2    -5.9    -6.2    -6.5    -6.7    -7.0    -7.2    -6.7
    -6.8    -6.3    -6.2    -5.9    -5.4    -5.4    -4.7    -4.6    -4.2    -3.8
    -3.1    -2.2    -1.5    -0.1     0.7     1.9     3.0     3.4     4.1     4.4
     4.1     3.8     3.8     3.4     2.9     2.4     1.8     1.5     0.6     0.3
    -0.2    -0.6    -0.2    -0.4    -0.2    -0.3    -0.9    -1.1    -1.6    -1.5
    -1.9    -2.0    -1.9    -2.2    -1.8    -2.1    -2.6    -3.1    -3.6    -3.3
    -3.6    -3.5    -3.1    -3.5    -3.2    -2.6    -1.9    -1.6    -1.4    -0.8
    -0.7    -0.5    -0.7    -0.9    -1.3    -2.3    -3.0    -3.9    -4.7    -5.7
    -6.7    -6.7    -6.8    -7.8    -8.2    -8.7    -9.5    -9.8   -10.5   -11.3
   -11.7   -12.1   -11.8   -12.0   -12.1   -11.8   -11.3   -10.3    -9.8    -9.3
    -9.1    -9.1    -8.6    -8.8    -8.9    -9.0    -8.7    -8.5    -8.7    -8.0
    -8.3    -8.7    -8.8    -9.3    -9.3    -9.8   -10.1   -10.1   -10.2   -10.0
    -9.8    -9.4    -9.7   -10.1    -9.9   -10.2   -10.5   -10.9   -11.6   -11.8
   -12.2   -12.9   -13.3   -13.8   -14.4   -14.6   -14.7   -15.1   -14.9   -14.4
   -13.7   -13.4   -13.3   -13.0   -12.6   -12.1   -11.8   -11.4   -10.9    -9.8
    -8.8    -8.4    -7.5    -7.4    -7.2    -7.3    -7.9    -7.6    -8.2    -8.7
    -8.7    -8.9    -8.6    -8.6    -8.4    -7.6    -7.2    -6.6    -5.8    -5.0
    -4.4    -4.3    -3.6    -3.2    -2.9    -3.3    -3.5    -3.2    -3.6    -3.4
    -3.7    -3.9    -3.7    -3.9    -3.8    -4.2    -4.2    -4.4    -4.5    -4.7
    -5.0    -4.8    -5.2    -4.8    -5.1    -5.2    -4.8    -4.8    -4.3    -4.7
    -4.4    -3.8    -3.9    -3.7    -4.1    -3.8    -4.0    -4.1    -4.7    -5.3
    -4.7    -5.5    -5.5    -5.4    -5.6    -5.4    -5.2    -4.5    -4.6    -4.3
    -4.6    -4.7    -3.9    -4.2    -4.0    -4.0    -3.6    -3.4    -3.3    -3.0
    -3.3    -3.1    -3.2    -2.5    -2.5    -2.6    -2.1    -1.9    -1.2    -1.6
    -1.4    -1.3    -1.9    -2.2    -3.0    -3.0    -3.6    -3.9    -4.0    -3.9
    -3.2    -3.0    -1.9    -1.1     0.1     1.4     2.2     3.5     4.4     5.1
     5.5     5.9     6.2     6.1     5.8     5.5     5.6     5.1     4.5     5.0
     5.4     5.7     6.2     7.1     7.9     8.2     8.7     9.1     9.0     9.0
     8.8     8.8     8.3     7.8     7.7     7.4     7.5     7.3     7.2     7.2
     7.0     7.1     7.0     7.6     7.8     7.5     7.7     7.5     7.7     7.5
     7.3     7.5     7.6     7.9     8.1     8.6     8.6     8.6     8.8     8.8
     8.7     8.0     8.0     7.6     7.3     6.9     6.2     6.2     5.8     6.1
     5.7     5.1     5.1     4.9     5.8     5.9     6.2     6.8     7.3     8.3
     8.5     9.0     9.5     9.8     9.8     9.5     9.8    10.0     9.9     9.4
     9.1     9.2     9.2     8.6     8.2     8.1     8.1     8.2     7.8     7.7
     7.6     7.3     7.5     7.4     6.9     6.3     6.6     6.7     6.4     6.1
     5.8     5.7     5.3     5.4     5.5     5.4     5.6     5.8     5.8     5.9
     5.9     5.4     5.3     5.1     5.1     5.0     4.5     4.3     3.9     3.6
     3.6     3.4     3.1     2.7     2.7     3.0     2.6     2.0     2.1     2.2
     2.2     1.9     2.0     2.0     2.1     2.2     1.5     1.6     1.4     1.0
     1.2     0.6     0.1    -0.8    -1.6    -2.2    -2.5    -2.7    -2.9    -2.6
    -2.5    -2.1    -1.8    -1.6    -1.6    -1.9    -1.9    -1.6    -1.5    -1.9
    -2.1    -1.9    -1.7    -1.5    -1.3    -1.2    -1.1    -0.7    -0.2     0.3
     0.5     0.4     0.3     0.1    -0.1    -0.6    -1.5    -2.1    -2.9    -3.8
    -4.5    -5.3    -5.7    -6.3    -6.7    -6.5    -6.9    -7.0    -7.4    -7.6
    -7.0    -7.4    -6.9    -6.5    -6.4    -5.9    -5.6    -5.2    -4.9    -4.8
    -4.9    -4.3    -4.4    -4.7    -4.4    -4.4    -5.0    -5.7    -6.1    -6.9
    -7.3    -7.4    -7.5    -7.3    -7.6    -7.4    -7.2    -7.1    -6.9    -7.3
    -7.0    -6.5    -5.8    -5.5    -5.4    -5.0    -4.9    -5.0    -5.0    -4.9
    -5.2    -5.4    -4.9    -4.8    -4.7    -4.4    -4.1    -3.7    -3.2    -2.9
    -2.6    -1.9    -1.6    -1.3    -0.7    -0.2     0.2     0.5     1.1     1.4
     1.5     2.0     1.9     2.2     2.6     2.4     2.6     2.2     2.2     2.1
     1.5     1.5     0.9     0.3    -0.3    -0.4    -0.4    -1.4    -0.9    -0.3
     0.0     0.9     1.4     2.7     3.5     4.1     4.7     5.1     5.4     5.4
     5.7     6.0     5.7     5.5     5.2     5.4     5.3     5.0     5.5     5.7
     6.0     6.0     6.0     6.3     6.2     6.0     5.7     5.9     5.8     5.7
     5.7     5.2     5.4     4.9     4.7     4.7     3.7     3.0     2.3     2.3
     1.7     1.2     0.9     0.5     0.7     0.1     0.1     0.2     0.2     0.3
     0.1     0.6     0.5     0.5     0.6     0.7     1.1     1.4     1.9     2.3
     3.0     3.8     4.3     4.7     5.0     5.1     5.0     5.0     4.7     4.3
     3.9     3.8     3.7     2.9     2.8     2.7     2.5     2.5     1.8     1.6
999999.9999999.9999999.9999999.9999999.9999999.9999999.9999999.9999999.9999999.9
999999.9999999.9999999.9999999.9999999.9999999.9999999.9999999.9999999.9999999.9
999999.9999999.9999999.9999999.9999999.9999999.9999999.9999999.9999999.9999999.9
999999.9999999.9999999.9999999.9999999.9999999.9999999.9999999.9999999.9999999.9
999999.9999999.9999999.9999999.9999999.9999999.9999999.9999999.9999999.9999999.9
999999.9999999.9999999.9999999.9999999.9999999.9999999.9999999.9999999.9999999.9
999999.9999999.9999999.9999999.9999999.9999999.9999999.9999999.9999999.9999999.9
999999.9999999.9999999.9999999.9999999.9999999.9999999.9999999.9999999.9999999.9
999999.9999999.9999999.9999999.9999999.9999999.9999999.9999999.9999999.9999999.9
999999.9999999.9999999.9999999.9999999.9999999.9999999.9999999.9999999.9999999.9
999999.9999999.9999999.9999999.9999999.9999999.9999999.9999999.9999999.9999999.9
999999.9999999.9999999.9999999.9999999.9999999.9999999.9999999.9999999.9999999.9
999999.9999999.9999999.9999999.9999999.9999999.9999999.9999999.9999999.9999999.9
999999.9999999.9999999.9999999.9999999.9999999.9999999.9999999.9999999.9999999.9
999999.9999999.9999999.9999999.9999999.9999999.9999999.9999999.9999999.9999999.9
999999.9999999.9999999.9999999.9999999.9999999.9999999.9999999.9999999.9999999.9
999999.9999999.9999999.9999999.9999999.9999999.9999999.9999999.9999999.9999999.9
999999.9999999.9999999.9999999.9999999.9999999.9999999.9999999.9999999.9999999.9
999999.9999999.9999999.9999999.9999999.9999999.9999999.9999999.9999999.9999999.9
999999.9999999.9999999.9999999.9999999.9999999.9999999.9999999.9999999.9999999.9
999999.9999999.9999999.9999999.9999999.9999999.9999999.9999999.9999999.9999999.9
999999.9999999.9999999.9999999.9999999.9999999.9999999.9999999.9999999.9999999.9
999999.9999999.9999999.9999999.9999999.9999999.9999999.9999999.9999999.9999999.9
999999.9999999.9999999.9999999.9999999.9999999.9999999.9999999.9999999.9999999.9
999999.9999999.9999999.9999999.9999999.9999999.9999999.9999999.9999999.9999999.9
999999.9999999.9999999.9999999.9999999.9999999.9999999.9999999.9999999.9999999.9
999999.9999999.9999999.9999999.9999999.9999999.9999999.9999999.9999999.9999999.9
999999.9999999.9999999.9999999.9999999.9999999.9999999.9999999.9999999.9999999.9
999999.9999999.9999999.9999999.9999999.9999999.9999999.9999999.9999999.9999999.9
999999.9999999.9999999.9999999.9999999.9999999.9999999.9999999.9999999.9999999.9
999999.9999999.9999999.9999999.9999999.9999999.9999999.9999999.9999999.9999999.9
999999.9999999.9999999.9999999.9999999.9999999.9999999.9999999.9999999.9999999.9
999999.9999999.9999999.9999999.9999999.9999999.9999999.9999999.9999999.9999999.9
999999.9999999.9999999.9999999.9999999.9999999.9999999.9999999.9999999.9999999.9
999999.9999999.9999999.9999999.9999999.9999999.9999999.9999999.9999999.9999999.9
999999.9999999.9999999.9999999.9999999.9999999.9999999.9999999.9999999.9999999.9
999999.9999999.9999999.9999999.9999999.9999999.9999999.9999999.9999999.9999999.9
999999.9999999.9999999.9999999.9999999.9999999.9999999.9999999.9999999.9999999.9
999999.9999999.9999999.9999999.9999999.9999999.9999999.9999999.9999999.9999999.9
999999.9999999.9999999.9999999.9999999.9999999.9999999.9999999.9999999.9999999.9
999999.9999999.9999999.9999999.9999999.9999999.9999999.9999999.9999999.9999999.9
999999.9999999.9999999.9999999.9999999.9999999.9999999.9999999.9999999.9999999.9
999999.9999999.9999999.9999999.9999999.9999999.9999999.9999999.9999999.9999999.9
999999.9999999.9999999.9999999.9999999.9999999.9999999.9999999.9999999.9999999.9
999999.9999999.9999999.9999999.9999999.9999999.9999999.9999999.9999999.9999999.9
999999.9999999.9999999.9999999.9999999.9999999.9999999.9999999.9999999.9999999.9
999999.9999999.9999999.9999999.9999999.9999999.9999999.9999999.9999999.9999999.9
999999.9999999.9999999.9999999.9999999.9999999.9999999.9999999.9999999.9999999.9
999999.9999999.9999999.9999999.9999999.9999999.9999999.9999999.9999999.9999999.9
999999.9999999.9999999.9999999.9999999.9999999.9999999.9999999.9999999.9999999.9
999999.9999999.9999999.9999999.9999999.9999999.9999999.9999999.9999999.9999999.9
999999.9999999.9999999.9999999.9999999.9999999.9999999.9999999.9999999.9999999.9
999999.9999999.9999999.9999999.9999999.9999999.9999999.9999999.9999999.9999999.9
999999.9999999.9999999.9999999.9999999.9999999.9999999.9999999.9999999.9999999.9
999999.9999999.9999999.9999999.9999999.9999999.9999999.9999999.9999999.9999999.9
999999.9999999.9999999.9999999.9999999.9999999.9999999.9999999.9999999.9999999.9
999999.9999999.9999999.9999999.9999999.9999999.9999999.9999999.9999999.9999999.9
999999.9999999.9999999.9999999.9999999.9999999.9999999.9999999.9999999.9999999.9
999999.9999999.9999999.9999999.9999999.9999999.9999999.9999999.9999999.9999999.9
999999.9999999.9999999.9999999.9999999.9999999.9999999.9999999.9999999.9999999.9
999999.9999999.9999999.9999999.9999999.9999999.9999999.9999999.9999999.9999999.9
999999.9999999.9999999.9999999.9999999.9999999.9999999.9999999.9999999.9999999.9
999999.9999999.9999999.9999999.9999999.9999999.9999999.9999999.9999999.9999999.9
999999.9999999.9999999.9999999.9999999.9999999.9999999.9999999.9999999.9999999.9
999999.9999999.9999999.9999999.9999999.9999999.9999999.9999999.9999999.9999999.9
999999.9999999.9999999.9999999.9999999.9999999.9999999.9999999.9999999.9999999.9
999999.9999999.9999999.9999999.9999999.9999999.9999999.9999999.9999999.9999999.9
999999.9999999.9999999.9999999.9999999.9999999.9999999.9999999.9999999.9999999.9
999999.9999999.9999999.9999999.9999999.9999999.9999999.9999999.9999999.9999999.9
999999.9999999.9999999.9999999.9999999.9999999.9999999.9999999.9999999.9999999.9
999999.9999999.9999999.9999999.9999999.9999999.9999999.9999999.9999999.9999999.9
999999.9999999.9999999.9999999.9999999.9999999.9999999.9999999.9999999.9999999.9
