Uncorrected accelerogram 2010.259.1058.15.CPXB.cmf GNS Science                  
Site CPXB       43 31 19S  172 34 57E                                           
Canterbury University Physics Department                                        
Instrument CSI CUSPM SENSOR 10007                                               
Resolution: 18-bit   Instr Period:        Damping:                              
Accelerogram 2010.259.1058.15.CPXB.cmf          Processed 2011 October 27       
Unnamed earthquake                                                              
2010 September 16   10:58:14 UT                                                 
Epicentre  43 37 29S 172 29  2E  Bearing N35W  Dist  14km Depth   8km ML 4.3    
Number of points  14717    Duration  73.580 seconds                             
Raw readings in units of 1.00 mm/s/s at intervals of 0.005 s                    
Data is unfiltered                                                              
Component N32E                                                                  
Acceleration:  Peak    142.3 mm/s/s at 19.760 s     RMS    22.37 mm/s/s         
Velocity record unevaluated                                                     
Displacement record unevaluated                                                 
    2010       9      16      10      58     140       0       0    2010       9
      43      37      29     172      29       2       8       0      16      10
      43      31      19     172      34      57      32      32     325      14
   14717       0       0   14717       0       0       0       0      58   15765
     0.0    0.00    0.00   0.000  0.0000   0.000   0.000   1.000     0.0    0.00
 -43.522 172.583 -43.625 172.484    4.31    0.00    0.00      0.      0.      0.
    0.00    0.00    0.00   73.58  0.0050  0.0050      0.      0.      0.  9807.0
   142.3   19.76    22.4      0.      0.     0.0    0.00     0.0     0.0   0.000
    0.00    0.00    0.00    0.00   0.000    0.00    0.00    0.00    0.00   0.000
   0.000   0.000   0.000      0.      0.   0.000   0.000   0.000      0.      0.
     1.1     0.4    -0.5     0.4     0.5    -0.4    -0.7    -0.3     1.0     0.8
    -0.8    -0.7     0.1    -0.5    -0.8    -0.2    -0.5     0.0    -0.2    -0.3
     0.7    -1.0    -0.5     0.8    -0.3     0.4     0.2     0.6     1.2    -0.2
    -0.5    -1.1    -1.0     0.5    -0.9    -1.5    -0.2    -0.5    -1.3    -0.2
     0.7    -0.5    -0.5    -0.5     0.3     0.6    -1.0     0.4     0.4     0.1
     0.2    -1.3    -0.5    -0.4    -0.7    -0.6    -1.0     0.0    -0.7    -1.0
     0.1    -0.4     0.0    -0.9    -1.0     0.8    -0.7    -0.5     0.5    -0.6
    -0.6    -0.1    -0.4    -0.7    -0.7     0.2     0.8    -0.3    -0.1    -0.3
    -0.2     0.8    -0.1     0.6     0.7     0.7     1.0    -1.0    -0.5     1.5
     0.2    -0.6    -0.4    -0.3    -0.7    -0.3     0.7    -0.3     0.0     0.1
    -0.1     0.3    -0.2     0.0     0.4    -0.2    -1.2    -0.2    -0.5     0.3
     0.6    -1.0     0.5    -1.1    -1.5    -0.2    -0.3    -0.3    -1.0    -1.1
    -1.5    -0.2    -0.2    -0.4     0.1    -1.2    -0.4    -0.2    -0.6    -0.7
    -1.3     0.1     0.0    -0.7     0.4     0.7     0.9     0.2    -0.6     0.0
    -0.2     0.6     1.1     0.3     0.2     1.1     0.2    -0.8     0.7     0.8
    -0.8    -0.9     0.7     1.0     0.2     0.7     0.2    -0.3     0.6     0.7
     0.2     0.8     0.9    -0.4    -0.5     0.4     0.2     0.2     0.3     0.1
     0.1    -0.1     0.8     0.1    -0.9     0.5     0.4     0.1     0.1    -0.1
    -0.2     0.6     0.6    -0.5     0.1     0.5     0.0    -1.1    -0.6     0.0
     0.0     0.4     0.5     0.9     0.6     0.3    -0.9     0.4     0.5    -0.8
     0.0     0.1     0.5    -0.2     0.9     0.4    -0.8     0.6    -0.3     0.2
     0.2    -0.6     0.0     0.8    -0.2    -0.9     0.8     0.8    -0.3    -1.8
    -1.1    -0.3    -0.7    -0.3    -0.2     0.0    -0.7     0.0    -0.1    -1.1
    -0.5     0.0     0.2    -0.1     0.1     0.2    -0.2    -0.2     0.0    -0.1
     0.4     0.0    -0.6     0.4     0.4    -1.0    -0.4     0.8    -0.8    -1.3
     0.0    -0.6    -0.7    -0.2    -0.1    -0.2    -0.8     0.0     0.2    -0.5
     0.6     0.0    -0.4     0.2    -1.2    -0.7     0.8     1.3     0.9     0.0
    -0.3    -1.0    -0.5     0.4     0.0     0.2     0.9     0.8     0.1     0.2
     0.7     0.4    -0.1     0.2     1.9     1.4     0.7     0.3    -1.4     0.4
     1.2     0.0     0.4     0.0    -0.4    -0.9    -0.2     1.3    -0.2    -0.4
     0.4    -0.3     0.6     0.6     0.9    -0.3    -0.7    -0.1    -1.1     0.6
    -0.4    -1.5    -0.5     0.2     0.3    -0.6     0.5    -0.1    -0.8    -0.3
    -0.1    -0.6    -0.7    -0.6    -1.0     0.0    -0.7    -0.5     0.8    -0.3
    -0.8    -0.3    -1.0    -0.8     0.5    -0.1    -1.4    -0.2     0.2    -0.4
    -0.7    -0.9     0.3     0.1    -1.1     0.6     0.7    -1.3    -0.7    -0.3
    -0.2     0.3     0.0     0.1    -0.3     0.2     0.6    -0.6    -0.4     1.4
     0.9     0.2    -0.1    -0.3     0.7     0.5     0.9     0.4     0.7     1.2
     0.6     0.5     0.1     1.2    -0.6    -0.7     1.4     0.6    -0.3     0.1
     0.9     0.2     1.7     1.1    -0.3     0.7     0.3     0.8     0.1    -0.2
     0.3     0.1     1.5     0.3    -1.2     0.9     1.2     1.3     1.1    -0.3
     1.2     0.6    -0.3    -0.1    -0.4     0.6    -0.7    -0.1     0.2     0.0
     1.2     0.1    -0.6    -0.4    -0.3    -1.3     0.2    -0.1    -2.0     0.1
    -0.1     0.0    -0.2    -1.3    -0.5     1.4     0.9    -1.0     0.7     0.4
    -0.4     0.0    -0.8    -0.2     0.2    -0.8    -1.7    -0.2     0.9    -0.7
    -0.7     0.7     0.0    -0.3    -1.1    -0.1     0.9    -1.9    -0.5     0.1
    -0.4     0.6    -0.4    -0.2    -0.5     0.1     0.2    -0.5     0.7     1.0
    -0.1    -1.1     0.5     1.1    -0.9    -1.2     0.5     1.6     0.8     0.5
     0.1     0.8     0.8     0.2     0.9     0.2     0.3     0.2     0.5     0.8
     0.6     0.5    -0.8     0.7     0.0     0.1     1.0    -1.7    -0.2     0.8
     0.5     0.3    -0.1     1.0    -0.1    -0.5    -0.2     0.1     0.4     0.0
     0.4    -0.3    -1.3    -1.4    -0.1    -0.2    -1.5     0.1     0.4     0.7
     0.5    -1.7    -0.9    -0.6    -0.4    -0.7    -0.5     1.1     0.1     0.2
    -0.1    -1.7    -1.4    -1.8    -0.9     0.8    -0.6    -2.1    -1.9    -0.4
     1.1    -0.8    -1.1     0.5    -1.0    -1.2    -0.1     0.1     0.5    -0.1
    -0.5     0.4     1.1    -0.4    -2.2    -0.1     0.1    -1.5     0.1     0.4
     0.5    -0.9    -0.9     0.8    -0.2     0.0    -0.4     0.6     1.0    -1.3
    -0.9     0.5     1.3     0.1    -0.5     0.5     1.3     1.4     0.1    -0.5
    -0.4    -0.3     0.0     0.8     1.0     0.4     0.3    -0.8    -0.7     0.3
     0.9    -0.2    -1.4     1.5     0.7    -0.8     0.4     0.5     1.7     1.1
     0.2     0.7    -0.2    -0.1     0.8    -0.2     0.1     0.4     0.2     0.9
     0.1     0.3    -0.3    -1.2     0.2     0.0    -0.5    -0.4     0.2     0.7
     0.8     0.9     0.6    -0.3    -0.9     0.2     0.4    -0.5    -0.5    -0.6
    -0.4     0.8     1.2    -0.5    -0.8     0.6     0.0    -0.3     0.4     0.4
     0.3    -0.3    -0.5     0.1     0.4    -0.3     0.1     0.1     0.1     0.1
    -0.5     0.5    -0.1    -0.2    -0.2    -0.7     0.5     0.0    -0.9     0.2
     0.8    -0.5    -0.1     0.1     0.5    -0.4    -2.2     0.9     1.7     0.7
     0.8     0.4     0.6     0.0    -0.7    -0.9     0.3     1.3    -0.5    -0.4
     2.0     0.4    -1.8    -0.5     1.0     0.3    -1.0    -0.3     0.4     0.7
    -0.6    -0.7     0.0    -1.0     0.9     0.6    -0.8     0.6    -0.2     0.2
     0.9    -0.3    -0.6    -1.0    -0.3     1.1    -0.4    -0.8     0.5    -0.1
     0.6     0.1     0.1     0.8    -1.0     0.1     0.5     0.5     0.7    -0.6
     0.8     0.6    -0.9    -0.4    -0.6     0.1     0.8    -0.4    -0.2    -1.0
    -1.3     0.4    -0.7    -0.4     1.0     0.1     0.1     0.1     0.0     0.0
    -1.4    -0.9     0.1    -0.1     0.1    -0.5    -0.2     0.4    -0.5    -0.7
     0.0     0.8    -0.5    -0.4     0.3    -0.7     0.8     0.2    -0.4     1.2
    -0.2     0.1     0.6    -0.8    -0.1    -0.2    -0.4     1.2     1.0    -0.1
    -0.3     0.5     0.8    -0.5    -1.0     0.3     1.2    -0.3    -0.7     0.4
     1.1     0.4    -1.7    -0.8     1.5     0.5    -0.7     0.0     0.6     0.8
    -0.1     0.2     1.3     1.2     0.1    -0.2     1.4     0.6    -0.4     0.2
     0.8     0.9     1.0     0.9    -0.5     0.1     0.1    -0.6     0.7     1.1
     0.4    -1.4    -0.2     1.1    -0.5    -0.6     0.3     1.2    -0.1    -0.5
     0.0    -0.8    -0.3    -0.4    -0.3     0.2     0.4     0.1    -0.7     0.0
     0.3     0.3    -0.6    -0.2     0.9    -0.9    -0.6    -0.1    -0.5     0.1
    -0.1     0.7    -0.4    -1.7    -0.2     0.0     0.2    -0.1    -0.8    -0.5
     0.3     1.0     0.4    -0.2     0.2     0.4     0.8     0.5     1.1     1.5
     1.0     0.0    -0.8     0.0    -1.1    -0.6     1.1     0.0     0.1     0.6
     0.4    -0.2     0.0     0.5    -0.3     0.3     1.1     0.1     0.0     0.3
     0.8     1.2     0.0    -0.7    -0.9    -0.5    -0.1    -0.2     0.8     0.7
     0.0     0.6     0.7     0.3    -0.1     0.3     0.7     0.4    -0.5    -0.5
     1.2     0.4    -1.1    -0.7     0.5     0.8    -0.2    -0.9    -0.3     0.3
    -0.5    -0.5    -0.2     0.4     0.4    -0.7    -0.3    -0.4    -0.5    -0.9
    -0.3     0.9    -0.4    -0.7    -0.1    -0.2    -0.3    -0.8    -0.9     1.7
     1.1    -0.9     0.0    -0.3     0.6     0.4    -0.8     0.4     0.2    -0.7
    -1.2    -0.2     0.5    -0.8    -0.2     0.5     0.5     0.1    -0.6     0.4
     0.0     0.3     0.8     0.5     0.5    -0.8    -0.1     0.0     0.3     0.8
    -0.8     0.1     1.2     1.0     0.4    -0.1     0.7     1.1    -0.1    -0.4
     1.3     0.8     0.4     0.0    -0.4     0.6    -0.2    -0.6     0.7     0.0
    -0.3     0.0    -0.8    -0.1     0.7     0.3     0.3     0.6     1.0     0.9
     0.1    -0.1     0.3     0.1     0.1    -0.1    -0.3     0.2     0.0    -0.4
    -0.1     0.7     0.0    -0.2     0.0    -0.6    -0.4    -1.0    -0.3    -0.1
    -0.7    -0.2    -0.4     0.0    -0.2    -1.1    -0.4    -0.5    -1.4    -0.3
     0.1     0.0     0.4    -0.3     0.3     0.7    -0.1     1.1     1.3    -0.5
    -0.7    -0.4     0.5     0.8    -0.1    -0.3     1.2     1.9     0.4    -0.3
    -0.3     0.0     1.0     0.8     0.1     0.5     0.6     0.2     0.8     1.3
     0.9     0.4    -0.6    -0.1     0.7    -0.2     0.5    -0.2     0.2     1.4
     0.6     1.3    -0.1    -0.8    -0.2     0.7     1.9     0.3    -0.5     0.9
     1.7     0.1    -0.7     0.0     0.5     0.9     0.1     0.3    -0.5    -0.9
     0.3    -0.4     0.2     0.9    -0.2    -0.7     0.1     0.2    -0.3    -0.4
    -0.2     0.9     0.1    -0.5    -0.2    -0.3     0.8    -0.3    -0.1     1.1
     0.2    -0.4     0.1     0.2     0.1    -0.3     0.2     1.2    -1.0    -0.3
     0.9    -0.7    -0.2    -0.4     0.2     1.1     0.7     0.0     0.7     1.5
    -0.7     0.6     1.6     0.4     1.7     1.4     0.4     0.5     0.3     0.9
     1.1    -0.1    -0.3     1.2     1.2     0.3     0.6     0.8    -0.3    -0.5
     0.2     0.1     0.7     0.1    -0.4     0.3     1.8     1.3     0.1     1.8
     0.6    -0.3    -0.2     0.2     0.7    -0.8    -0.3    -0.1    -0.4    -0.7
    -0.6     0.8     0.0    -0.8    -0.1     0.4    -0.2     0.0     0.7     0.3
    -0.1    -0.3    -0.2     0.6     1.1    -0.2    -0.5     0.4     0.3     0.3
     0.0     0.3     0.0    -0.6    -0.4    -0.6     0.3     0.2    -0.3    -0.3
    -0.1    -0.2    -1.5    -0.7     0.5     0.4     0.1     0.5     1.4    -0.9
    -1.4     0.6     0.6     0.7    -0.5     0.1     0.8    -0.2    -0.2    -0.7
     0.9    -0.2    -2.0    -0.2     0.3    -0.1     0.5     1.2    -0.2     0.3
     0.7     0.1     1.8     1.6     0.0     0.2     0.9     1.3     1.4     1.2
     0.9     0.4     0.0     0.2     0.9     0.6     0.5     1.1     0.7     1.1
     1.1     0.0     0.1     0.6     0.0     0.9     1.2    -0.7     0.1     1.1
     0.4     0.6     0.1     0.5     1.4    -0.4    -1.0     0.2    -0.2    -0.8
     0.9     1.3    -0.4     0.2     0.2    -1.0     0.2    -0.2    -1.0     0.9
     0.1    -1.9    -1.6    -0.9    -0.7    -0.6    -1.2    -1.4    -0.6    -1.3
    -1.0    -0.3    -0.8     0.3     1.2     0.0    -0.1     0.7    -0.6     0.0
     1.2    -0.8    -1.1     1.5     1.9    -0.4    -0.6    -0.5     0.1     0.3
    -0.3     0.6     0.4     0.7     0.3    -0.1     0.0    -0.1     0.6     0.6
     0.6     0.1    -0.3     0.4     1.5     0.5    -0.2     0.8     0.5     0.1
    -0.7     0.6     1.1     0.3     0.0    -0.8     0.3     0.8    -0.5    -1.1
     0.2    -0.1    -0.7    -0.2    -0.1     1.0     0.3    -0.9     0.3     0.5
    -1.4    -0.1     0.6    -0.2     1.0     0.0    -0.1    -0.6    -0.5     0.5
    -0.8     0.1    -0.1    -1.0     0.3     0.3    -0.1    -0.6    -1.0    -0.8
    -1.0    -0.7    -1.1    -1.5     0.7     1.4     0.0    -0.2    -1.9    -1.4
     0.5    -0.9     0.3     0.3     0.1     1.0    -0.5     0.7     0.7     0.3
     0.6    -0.1     0.2    -0.3     0.3     0.2    -0.5     0.0    -0.6     0.4
     0.8    -0.6    -0.7    -1.1    -0.5    -0.5    -0.5     1.1     0.8     0.1
     0.3     0.3     0.0     0.2     0.4     0.0     0.0     0.6    -0.9    -0.3
     1.2    -1.2     0.0     0.5     0.2     1.1    -0.8     0.4     0.8    -0.4
     0.1     0.0     1.0     1.1    -1.6    -1.7     0.5     0.5     0.5     0.7
     0.9    -0.2    -0.9     0.1     0.0     0.6    -0.3    -1.2     0.1    -0.5
    -1.2    -1.0    -0.4     0.5     0.5     0.2    -0.6    -0.8    -0.6    -0.1
     1.0     0.2    -1.1    -1.5    -0.7    -0.3    -0.6    -0.6    -0.4     0.7
     0.0     0.2     0.0    -0.4     1.1     0.4    -0.1    -0.4     0.2     0.1
     0.1     0.7    -0.8    -1.2    -0.8    -0.3     0.3     0.8     0.6     0.0
     1.4     0.9    -0.8     1.2     1.5    -0.8     0.4     1.2     0.5     0.0
    -0.4     0.1     0.6     0.1    -0.7    -0.3     0.1     1.1     0.1    -0.3
     0.7    -0.3     0.4     0.3     0.3    -0.2    -0.5     1.0     0.0    -0.3
    -0.1    -0.3    -0.5    -0.6     0.3    -0.5    -0.4     0.2    -0.3     0.2
    -0.5    -1.8    -0.6     0.4    -0.1     0.2     0.7     0.4    -0.2     0.0
     0.3     0.5    -0.4    -0.5     0.3    -0.5    -0.3    -0.1    -0.4    -1.0
    -0.5     0.8     0.6     0.5    -0.3    -0.1     0.5     0.5    -0.4    -0.8
     0.8     0.2    -0.3    -0.3     0.4     0.4     0.1     0.8    -0.4     0.4
    -0.4    -0.9     1.2     0.2    -0.9    -1.4     0.0     1.0     0.3     0.1
     0.1     0.6     0.4    -0.1    -0.3     0.1     0.1    -0.8    -0.4    -0.3
    -1.1    -0.6     0.8     1.1     0.2    -0.6    -0.1     0.7     0.6    -0.2
    -0.2     0.7     0.4     0.0     0.0    -0.8     0.4     1.4    -0.4     0.5
     2.1     0.5    -0.6     0.1     0.3     0.3     0.2     0.0     0.3    -0.5
    -0.5     0.0     0.5    -0.2    -1.5    -0.1     0.4     0.1    -0.5    -1.0
     0.4     0.3    -1.5     0.3     1.2     0.0     0.3    -0.1     0.1    -0.6
    -2.1    -1.3    -0.3    -0.2     0.4    -0.2    -0.9     0.1    -0.5    -1.2
    -0.3     1.2     0.7    -0.7    -0.2     0.8     0.4    -1.4    -0.9    -0.6
     0.1     0.6    -0.1     0.3     0.5     0.9     0.4    -0.1     1.4     3.0
     1.2     0.2     1.2     0.2     0.1     0.5     0.4     0.2     1.2     0.2
    -0.6     1.8     0.7     0.1     1.2     1.7     1.1    -0.2     1.1     0.6
    -0.2     1.3     1.2     0.6     1.4    -0.3     0.0     2.0     0.2    -0.3
    -0.1     1.1     0.1    -1.0     1.5     0.7     0.3    -0.5    -0.7     1.4
     0.6    -0.3     0.0     0.1     1.3     1.4    -0.3     0.3     0.8    -0.3
    -1.3     0.1     1.8    -0.6    -0.3     0.0    -0.8     0.5    -0.2     0.6
     0.3     0.2     1.0    -0.2     0.8    -0.3    -1.1    -0.3    -1.0    -0.2
    -0.9    -1.2     0.8     0.0    -0.9     0.4    -0.3     0.3     1.3    -0.8
     0.4     0.8    -1.2    -0.9    -0.7     0.1     0.0    -0.8     0.1     0.4
    -0.7    -0.2     0.3     0.2     0.5    -0.3    -0.6    -0.6     0.4     0.6
    -0.9    -0.6     0.4     0.2    -0.8    -0.4     0.3     0.3    -0.3     0.3
     0.8    -0.2     0.0    -0.5    -1.0    -0.1     0.0     0.0     0.0     0.8
     0.1    -1.3     0.4     1.2     0.3     0.1    -0.2    -0.4    -0.2    -0.2
     0.2     0.9    -0.1    -0.9     0.1     1.4     0.1    -0.5     0.9     0.3
     0.7    -0.1     0.5     1.5     0.6     0.2    -0.9     0.6     0.5    -1.1
    -0.4     0.8     1.3     0.1     0.7     1.0     0.3     0.2    -0.5     0.7
     1.1    -0.2     0.4     0.6     0.3    -0.4    -0.4     0.1     0.8     1.7
     0.1    -0.3     0.4    -0.5    -0.6     0.1     0.6    -0.4    -0.2     0.1
     0.1     0.8     0.0    -0.8    -0.5     0.2     0.2    -0.2    -0.1     0.0
     0.6     0.0    -0.4    -0.1    -0.9    -0.4     0.5    -1.0    -1.4     0.3
    -1.0    -0.3     0.9    -0.3     0.5     0.2    -0.3    -0.1    -0.2    -0.5
    -0.6     0.6     0.4    -0.1    -0.1    -0.1    -0.3     0.4     1.2     0.1
    -0.9     0.0     1.2     0.8    -0.2    -0.7     0.8     1.4    -0.5    -0.9
     0.3     1.0     0.4     0.4     1.0     0.7    -0.5    -0.9    -0.2     0.1
     0.2     0.1    -0.3     0.4     0.4     0.2    -0.2     0.0     2.1     1.3
     0.7     1.2    -0.6    -0.6     0.5     1.3     1.2    -0.2    -0.1     0.9
     1.0    -0.1    -1.1     0.5     0.8    -0.2     0.6    -0.1    -0.3    -0.2
    -0.4    -0.7    -0.4     0.1    -1.0     0.2     1.1     1.1    -0.1    -1.2
     0.3     0.1    -0.9    -1.0     1.3     0.3    -1.0     0.7     0.1     0.8
     0.5     0.0     0.1    -0.7    -0.4    -1.1    -0.3     0.7    -0.9    -1.0
    -0.8    -0.2     0.5    -0.4     0.6     0.0    -0.2     0.6    -0.4     0.3
    -0.3    -1.1    -0.9     0.1    -0.5    -1.4     0.4    -0.2     0.4     0.6
    -0.2     1.1     0.4     0.5     0.3     0.3     0.1    -0.9     0.1    -0.1
     0.1     0.0    -0.7     0.7     0.6     0.3     0.3     0.6     1.1     0.4
     0.6    -0.2    -0.8     0.8     0.8     0.6     0.6     0.8     1.1    -0.1
     0.3     0.5     0.1     0.3    -0.4     0.5     0.1    -0.7    -0.3     0.4
     0.6    -1.6     0.3     1.6     1.2     0.5    -2.7    -0.3     0.6    -0.4
     0.5    -1.1     1.1     0.8    -0.5     0.9     0.0     0.5     0.0    -0.9
     0.8     0.8    -0.3    -0.2     0.9     1.0     0.1    -0.8    -0.2     0.2
    -1.8    -1.2     0.3    -0.2    -0.3    -0.4     0.1     0.1    -1.0    -0.8
     0.2    -0.5    -1.1    -0.4     0.1     0.9    -0.3    -1.4    -1.2    -0.8
    -0.3    -0.8     0.4     0.0    -0.5     0.4     0.1     0.9    -0.6    -0.7
     0.9     0.3    -0.1    -0.6    -0.4     1.0     0.8    -0.5     0.4     0.3
    -0.3     0.3    -0.4     0.3    -0.1    -1.3    -0.3     1.0    -0.1    -0.4
     0.5     0.5     0.8    -1.2    -1.6     0.2    -0.4    -0.3     0.8     0.5
    -0.7    -0.1     0.7    -0.3     0.0    -0.2    -0.2     1.6     0.4    -0.5
    -0.6     0.0     1.2     0.3     0.9     0.4     0.3     0.7     0.6     0.5
    -0.7     0.2    -0.2    -1.2    -0.1     1.1     1.3     0.6     0.3     0.4
     0.6    -1.0    -0.8     0.4     1.8     1.9    -0.3    -0.3    -0.1     0.3
     0.8     0.9     1.8     1.6     0.0     0.2     0.9     0.1     0.1     0.8
     0.9     0.1    -0.1    -0.2    -0.4     0.8    -0.1    -1.6     0.1     0.6
    -0.3    -0.4    -0.3     0.3    -0.5    -0.9     1.1     1.3     0.0    -0.6
