Uncorrected accelerogram 2009.010.1155.58.AVAB.cmf GNS Science                  
Site AVAB       41 11 51S  174 55 54E                                           
GNS Avalon                                                                      
Instrument CSI CUSPM SENSOR 11009                                               
Resolution: 18-bit   Instr Period:        Damping:                              
Accelerogram 2009.010.1155.58.AVAB.cmf          Processed 2011 October 27       
Unnamed earthquake                                                              
2009 January 10     11:53:26 UT                                                 
Epicentre  35 23  9S 178 47 55E  Bearing S29E  Dist 729km Depth 212km ML 5.5    
Number of points  10663    Duration  53.310 seconds                             
Raw readings in units of 1.00 mm/s/s at intervals of 0.005 s                    
Data is unfiltered                                                              
Component N18W                                                                  
Acceleration:  Peak      2.6 mm/s/s at 52.910 s     RMS     0.64 mm/s/s         
Velocity record unevaluated                                                     
Displacement record unevaluated                                                 
    2009       1      10      11      53     260       0       0    2009       1
      35      23       9     178      47      55     212       0      10      11
      41      11      51     174      55      54     342     342     151     729
   10663       0       0   10663       0       0       0       0      55   58580
     0.0    0.00    0.00   0.000  0.0000   0.000   0.000   1.000     0.0    0.00
 -41.198 174.932 -35.386 178.799    5.53    0.00    0.00      0.      0.      0.
    0.00    0.00    0.00   53.31  0.0050  0.0050      0.      0.      0.  9807.0
     2.6   52.91     0.6      0.      0.     0.0    0.00     0.0     0.0   0.000
    0.00    0.00    0.00    0.00   0.000    0.00    0.00    0.00    0.00   0.000
   0.000   0.000   0.000      0.      0.   0.000   0.000   0.000      0.      0.
  -0.068   1.403   0.187  -1.156  -0.617  -0.558  -0.676   0.697   0.952  -0.862
  -0.548  -0.283  -1.215  -1.264  -1.568  -0.303   0.138  -0.891  -0.234  -1.215
  -0.852   0.021  -0.735  -0.176  -0.803  -0.774  -0.362  -0.185   0.040  -0.793
  -0.303  -0.028  -0.656  -0.068   0.295  -0.744  -0.666  -0.019  -0.215   0.521
   0.658  -0.784  -0.882  -0.646  -0.980  -0.617  -0.156   0.423  -0.117  -0.283
  -0.538  -1.607  -1.490  -1.156  -0.362   0.128   0.060  -0.725  -0.587  -0.215
  -0.882  -0.048   0.236   0.619   0.246  -0.931  -0.372  -0.332  -0.234  -0.107
  -0.195  -0.087  -0.823  -0.941  -0.656  -0.784   0.148   0.550  -0.264  -0.509
  -0.421   0.070  -0.480  -1.460  -0.578   0.511  -0.509  -1.470  -0.362  -0.489
  -0.646  -0.470  -0.578  -0.303  -0.107   0.531  -0.342  -0.205  -0.264  -0.744
  -0.538  -0.254  -0.058  -1.705   1.217   2.070  -0.636   1.001   0.148  -1.254
  -0.489  -0.127  -0.352  -0.990   0.168   0.491  -0.401   0.354   0.550   0.334
   0.236  -0.107   0.844   0.697  -0.372   0.060   0.030  -0.695  -0.176   0.560
   0.933   0.766  -0.352   0.079   1.139   0.982   0.413  -0.264   0.334   0.609
  -0.725  -0.607   0.187   0.972   0.099  -1.343   0.070   0.629   0.531   0.148
   0.315   0.491  -0.587   0.040  -0.215  -0.244   0.364  -0.460  -0.548   0.315
   0.560  -0.489  -0.254  -0.283  -0.852  -0.323  -0.764   0.050   0.070  -0.234
   0.707  -0.784  -0.617   0.021  -0.656   0.334   0.589  -0.735  -0.921  -0.097
   0.158  -0.087  -0.764  -0.009  -0.332  -1.186   0.187  -0.068  -0.303  -0.587
  -1.450   0.138   0.874  -0.156  -0.656   0.256   1.531   0.236  -0.558   0.354
   0.717   0.393  -0.195   0.687   0.707  -0.156  -0.136   0.021  -0.097  -0.617
  -0.558  -0.215   0.580   0.491  -0.146   0.138   0.236  -0.019  -0.646  -0.087
   0.187  -0.627  -0.519  -0.911  -0.470  -0.176  -0.195   0.668  -1.343  -1.127
   0.678  -0.313   0.226  -0.009   0.079   0.786  -0.078  -0.048   0.276   0.521
  -0.166  -0.911  -0.087   0.011  -0.950  -0.676  -0.401  -0.117   0.119  -0.538
  -0.205   0.070  -0.185  -0.293  -0.019   0.226   0.403  -0.283  -0.078   0.786
  -0.205   0.060  -0.784  -1.607  -0.519  -0.793  -0.372   0.531  -0.038  -0.234
  -0.195  -0.185   0.030  -0.529   0.521  -0.019  -1.078   0.658   0.158  -0.597
   0.629   0.707  -1.039  -0.784   0.423   0.177  -0.617  -0.784   0.550   0.491
   0.727   0.952   0.119   0.423   0.364   0.491   0.599   0.452   0.432  -0.489
  -0.332   0.276   0.305   0.256   0.099   1.560   0.697  -0.548   0.089  -0.872
   0.197   0.550  -0.205   0.383  -0.234  -0.431   0.099   0.334  -0.028  -0.019
   0.334   0.325   0.119  -0.529  -0.254  -0.352  -0.970  -0.568  -0.274   0.138
  -0.097  -0.127   1.246   0.060  -0.862   0.942   0.197  -0.097   0.746  -0.136
  -0.146  -0.215  -0.538  -0.254   0.197  -0.166  -0.274   0.717   0.619   0.079
  -0.529  -0.107   0.531  -0.627  -0.686   0.540  -0.009  -0.391  -0.107  -1.333
  -0.676   0.109  -0.019   0.413  -0.234  -0.460  -1.039  -0.499   0.197  -0.068
   0.815   0.560  -0.127   0.629   0.815  -0.509  -0.509  -0.803  -1.362  -0.568
  -1.225  -1.303  -0.990  -0.450   0.393  -0.372   0.511   0.177  -1.480  -0.686
  -0.735  -0.646  -0.705  -0.725  -0.283  -0.666  -0.784  -0.568   0.795   0.658
  -0.656  -0.519   0.609  -0.332  -0.862   1.217   0.854   0.697   0.638  -0.097
   0.109   0.727   0.393  -0.842   0.609   0.217  -1.735  -1.088   0.344   0.207
  -0.411   0.638  -0.205  -0.882  -0.421  -0.784  -0.019   0.030   0.128  -0.244
  -0.431   0.580  -0.411  -0.431  -0.176  -0.990  -0.921  -0.568  -0.833  -1.460
  -0.921  -0.274  -0.136  -1.166  -1.156  -0.803  -1.097   0.256   0.011  -0.735
  -0.882  -0.813  -0.156   0.217   0.442   0.393  -0.127  -0.342   0.325  -0.244
  -0.636  -1.146  -0.823   0.442  -0.058   0.315  -0.146  -0.195   0.589   0.462
  -0.107  -0.901  -0.068  -0.941  -0.911   0.089  -1.009  -0.303   0.462  -0.607
   0.462   1.266  -1.813  -1.137   0.109  -0.450   0.060  -1.833  -1.196  -0.891
  -0.990   0.119  -0.990  -0.323   0.511   0.854  -0.744  -1.568  -0.597  -1.676
  -0.872  -0.764  -0.401   0.481   0.344   0.442  -0.352   0.638  -0.421  -0.823
   0.344  -0.274   0.246  -0.234   0.354  -0.244  -0.646   0.521  -1.529  -0.803
   0.207  -0.421   0.825  -0.136  -1.245  -0.234   0.599   0.168  -0.509   0.030
   0.021  -0.558  -0.931   0.040   0.452  -0.990  -0.480  -0.185   0.021   0.334
  -0.264  -0.313  -0.882  -0.303   0.991   0.786  -0.519  -0.470   0.266   0.423
   0.491   0.109   0.570   0.580  -0.774  -1.303   0.021   0.226  -0.764  -0.146
   0.697   1.345   1.354   0.197   0.021   0.148  -0.558  -0.244   0.776  -0.195
  -0.823   0.364   0.501   0.717   0.030  -0.705   0.217  -0.607  -0.666   0.864
  -0.254  -1.225   0.050   0.276  -0.323  -0.068   0.315  -0.195  -0.176   0.383
   0.874   0.903   0.128  -0.117  -0.028   0.874   0.374  -0.274   0.168   0.070
  -0.254  -1.146  -0.048  -0.411  -1.205  -0.117   0.344   0.217  -0.744   0.089
  -0.382  -0.960  -0.362  -1.303  -0.411   0.148  -0.431  -0.303  -0.823  -0.646
   0.099  -0.097  -0.087  -0.127  -0.274   0.334  -0.293  -1.480  -0.176   0.354
  -1.137  -0.097   0.079  -0.833  -0.058  -0.597  -0.489  -0.636  -0.842  -0.254
   0.187   0.472   0.217   1.031  -0.352  -0.323   0.383  -0.342   0.609  -0.960
  -0.431   0.668  -0.480   0.021   0.638   0.795  -0.519  -0.019   0.128  -1.431
  -0.372  -0.470  -0.431   0.658  -0.342  -0.842   0.217   0.266  -0.489  -0.421
   0.040   0.109  -0.519  -0.136   0.727  -0.176  -1.019   0.236  -0.244  -1.833
  -0.578   0.079  -0.617  -0.509  -0.127  -0.725  -0.705  -0.323  -0.480   0.344
  -0.225  -0.715   0.001  -0.058  -0.636  -0.695  -0.538  -1.696  -1.352  -0.941
  -0.901   0.374   0.030  -0.019   0.727  -0.028  -0.401  -0.382  -0.568   0.383
   0.089  -0.529   0.246   0.168   0.481   1.295   0.285  -0.234  -0.205  -1.166
  -1.401  -1.264  -1.215  -1.205   0.344   0.305   0.423   0.629  -0.990   0.001
  -0.960  -0.646  -0.440  -1.127  -0.470  -1.029   0.580   0.462   0.236  -0.019
  -0.587   0.119  -0.509  -1.048  -1.264  -0.323  -0.813  -1.137   0.226  -0.078
   0.079   0.207   0.177  -0.303  -1.656  -0.793  -0.764  -0.705   1.109   0.570
  -0.538  -0.548  -0.127  -0.283  -0.087   0.668  -0.676  -0.176   1.276   0.138
   0.442  -0.068  -1.097  -0.489  -1.058  -1.352  -1.470  -0.244   0.256  -0.225
   0.393  -1.127  -0.636   0.295  -0.264   0.256  -0.793  -0.421  -0.107  -1.519
  -1.068  -0.048  -0.440  -1.705  -0.754  -0.342  -1.598  -1.186  -0.097   1.148
  -0.117  -0.627   0.383  -0.411   0.403   0.266  -0.313  -0.568  -0.813   1.021
   0.472  -1.097  -0.185  -0.019  -0.185  -0.038  -0.686   0.070   0.325   0.187
   0.491  -0.421  -0.352  -0.362  -0.764  -0.578  -0.264  -0.372  -0.529  -0.185
  -0.627  -0.078   0.187  -0.509   0.089   0.472   1.011   0.707  -0.097  -0.185
  -0.548  -0.293  -0.068  -0.411  -0.558  -0.313  -0.538  -0.568  -0.372  -0.411
  -0.048  -0.666  -1.186  -0.960  -0.636  -0.587  -0.891  -1.088  -1.176   0.030
   0.383  -0.921  -1.166   0.060   0.432  -0.578  -0.136   0.334   0.109   0.550
  -0.254  -0.391  -0.450  -1.647  -1.568  -0.872   0.413   0.325  -0.195  -0.391
  -0.852   0.040  -0.097  -0.793   0.001   0.001  -1.107   0.403   1.090   0.207
   0.560  -0.529  -0.803  -0.068   0.383  -0.323  -1.166  -0.568  -0.234   0.325
  -0.872  -1.048  -0.244  -0.254   0.207  -0.842  -0.450  -0.636  -1.264  -0.852
  -0.185   0.354  -0.352   0.835  -0.058  -0.715   0.403   0.266   0.844   0.030
  -0.048  -0.244  -0.784  -0.548  -0.440   0.315   0.119   0.295   0.187  -0.176
  -1.088  -0.744   0.334  -0.715   0.285  -0.048  -0.234   0.089  -0.891   0.531
  -0.440  -0.009   1.227  -0.695  -0.038  -0.362  -0.127   1.501   0.423   0.256
  -0.578  -0.607  -0.117  -0.990  -0.117   0.501   0.629  -0.774  -0.646   1.217
  -0.342  -0.941  -0.617  -0.293   0.403  -0.234  -0.686  -1.343  -0.695   0.285
   0.374  -0.097  -0.676   0.236  -0.842  -1.235   0.138  -0.646  -0.225   0.040
  -1.588  -1.058  -0.176  -0.480  -0.038   0.383   0.854   0.766  -0.185  -0.548
  -0.480  -0.176   0.011  -0.313  -0.695  -0.411   0.325   0.266   0.276   0.079
  -0.185   0.207  -0.009   0.540   0.295  -0.009   1.050   0.795   0.638   0.864
  -0.342  -0.529   0.197  -1.892  -2.353  -0.852  -0.382   0.021  -0.362   0.452
   0.217  -0.725  -0.607  -0.872  -0.695  -0.715   0.060  -0.274  -0.803   0.580
  -0.480  -0.303   0.383  -0.489   0.011  -0.921  -0.097   0.177  -0.499   0.609
  -0.009  -0.068  -0.754  -0.823   0.246  -0.342  -0.764  -0.107   0.060  -1.097
  -1.156  -0.627  -0.313  -0.352   0.864   1.541  -0.195  -0.068   0.315  -0.313
  -0.578   0.276  -0.195  -0.538   0.119  -0.970   0.305   1.403   0.805  -0.087
  -0.293   0.128  -0.431  -0.107   0.021   0.687   0.266  -0.460   0.079   0.030
   0.903  -0.019  -0.980   0.609   0.874   0.344  -0.019   0.158   0.099   0.236
   1.678   0.648  -0.185   0.089  -0.852   0.109   0.452  -0.980   0.070   0.982
   0.001   0.511   0.678   0.119   0.266   0.432   0.060   0.021   1.570   0.472
  -1.186   0.021   0.589  -0.087  -0.470   0.913   0.717  -0.656   0.354   1.050
   1.040   0.119  -0.617   0.786   0.364   0.521   0.991  -0.715   0.187   0.472
   0.128   0.276  -0.872  -0.852  -0.362   0.158   0.226   0.325   0.089   0.011
   0.217   0.580   0.776  -1.117  -0.686   0.344   0.217   0.148  -0.990   0.707
   1.031  -0.999   0.207   0.266  -0.597   0.325   0.393  -0.009   0.432   1.148
   0.413  -0.529   0.344  -0.019  -0.686   0.266   0.207   0.148   0.393   0.344
  -0.391  -0.431   0.736  -0.195  -0.931   0.256   0.256  -1.078   0.854   1.335
  -0.715   0.442   0.717   0.707   0.501  -0.058   0.687   0.177  -0.636  -0.980
  -0.499   0.511   0.138  -0.107  -0.627  -1.205   0.285   0.119  -1.127  -0.764
  -0.440  -0.852  -0.999  -0.529  -0.244  -0.048  -0.215  -0.156   0.383   0.570
  -0.195  -0.323  -0.411  -1.078   0.226   0.491   0.148   1.158   0.383  -0.529
  -0.382   0.305   1.413  -0.028  -0.558   0.521   0.305   0.393   0.491   0.844
   0.472   0.374   0.374  -0.254   0.393   0.687   0.540   0.491   0.177   0.246
   0.109   0.148   0.825   0.011  -0.264  -0.019  -1.078  -0.538   0.550   0.884
   0.217  -0.313   0.021   0.354   1.207   1.511   0.423  -0.215   0.491  -0.362
  -0.882   0.344   0.580   0.805   0.177  -0.656  -0.097   0.119   0.109  -1.088
  -1.078   0.432  -1.274  -0.931   0.226  -1.176  -1.078  -1.245  -0.921  -0.146
  -0.911  -1.666  -0.784  -0.205  -0.587  -0.136  -0.970  -1.058   1.148   1.992
   1.001   0.374   0.207   0.001   0.521   0.138  -0.578  -0.205   0.070   0.187
   0.021  -1.029  -1.362   0.540   1.109  -0.078  -0.578  -0.440  -0.127  -0.440
   0.511   0.746  -0.431  -0.205   0.119   0.158  -0.176  -0.833  -0.293   0.423
   0.158  -0.185  -0.470  -0.176  -0.166   0.197   0.638   0.148  -0.372  -0.774
   0.913   0.393  -1.637  -0.146  -0.529  -0.784   0.462  -0.156   0.580   0.717
  -0.205  -0.283  -1.392  -1.794   0.501   1.295  -0.107   0.854   0.021  -0.499
   0.874  -0.185   0.158  -0.234   0.109   0.472  -1.441  -0.587  -0.676  -1.470
  -0.274   0.815   0.893  -0.401  -0.519  -0.058  -0.009   0.040  -0.784  -0.127
   0.501   0.315   0.835   0.746  -0.450  -1.048   0.276   0.070  -0.097   0.021
  -0.283  -0.107  -0.725  -0.058   0.109  -0.372  -0.028   0.021  -0.538  -0.352
  -0.568  -0.715   0.226  -0.097   0.197   0.540   0.452  -0.362  -0.215   1.158
   1.109   0.903  -0.195  -0.313  -0.038   0.050   0.481   0.383  -0.058  -0.176
   0.197  -1.392  -0.823  -0.450  -1.352  -0.019  -0.695  -0.646   0.128   0.393
   0.570   0.403  -0.185  -1.303  -0.038   0.138  -0.058   0.148  -0.342   0.854
   1.256  -0.440  -0.764   0.717  -0.244  -0.421  -0.274  -0.038   1.001  -0.176
   0.374  -0.234  -0.470   0.403   1.070   1.129  -1.539  -0.636  -0.715  -0.460
   0.599  -0.744   0.040  -0.058   0.540  -0.695  -1.362   0.236  -0.313   0.109
  -0.303   0.001   0.462  -0.852  -1.127  -0.882  -1.137  -0.087   0.589  -1.029
  -1.392  -1.156  -0.225   0.011  -0.195   1.011   0.207  -0.470  -0.391  -1.284
  -1.647   0.021   1.492  -0.028   0.266   0.491  -1.058   0.021  -0.666  -1.627
  -0.136   0.266  -0.283  -0.656  -0.215  -0.431  -0.489  -0.382  -0.774   0.325
   0.648  -0.087   0.462   0.874   0.138   0.236  -0.607  -1.431   0.589   0.364
  -0.833   0.021  -0.166  -1.127  -0.323   0.050  -0.519   0.638  -0.744  -1.970
   0.589   0.403  -0.686  -0.009  -0.293  -0.038   0.491  -0.107   0.050   0.864
   0.472   0.344  -0.597  -0.695   1.501  -0.146  -1.117   0.266  -0.176  -0.735
  -0.244   0.903  -1.097  -0.470   1.403  -0.842  -0.097  -0.234  -1.333  -0.244
   0.099   0.403  -0.127  -0.646  -0.107   0.109  -0.225  -0.891  -0.970   0.383
  -0.078  -0.323   0.707  -0.450  -1.137  -1.539  -1.284  -0.470  -0.538  -0.215
  -0.695  -0.656   0.756   0.383   0.040   0.521   0.148   0.648  -0.117  -0.941
  -0.146  -0.352   0.040   0.491  -0.234  -0.087   0.187   0.491   0.462  -0.225
   0.835  -0.185  -0.676   0.805  -0.293   1.040   0.638  -1.725  -0.028   0.128
  -0.548   0.266  -0.921  -0.538   0.825  -1.019  -0.627   0.256   0.177   0.717
  -0.166   0.011   0.001  -0.774  -0.627   0.383   0.638  -0.372  -0.411   0.462
  -0.048  -0.999  -0.352  -0.342   0.158   0.099  -0.656  -0.127   0.040   0.050
  -0.460  -0.617  -0.617   0.540   0.040  -0.234   1.099  -0.627   0.236  -0.205
  -0.725   0.844  -0.852  -0.568  -0.411  -1.137  -0.636  -0.607  -0.411  -0.234
   0.040   0.158  -0.136  -0.087  -0.234  -0.176   0.246  -1.019  -1.137   0.276
   0.158  -0.823  -0.136   0.697  -0.411  -0.009  -0.450  -0.627  -0.185  -0.793
   0.236  -0.509  -0.313  -0.313  -0.793   0.207  -0.244   0.913  -0.009  -0.842
   0.138  -0.362  -0.019  -0.568   0.109   0.452  -0.656  -0.401  -0.627  -0.362
   0.746   0.717  -0.352  -0.450  -0.382  -1.450  -0.587   0.442  -0.852  -0.283
   0.226  -0.382  -0.234  -0.744   0.344  -0.136  -0.921   0.021  -1.529  -1.097
   0.560   0.629   0.119  -0.578  -0.362  -0.813  -0.176   0.521   0.354   0.589
  -0.519  -0.568  -0.058  -1.039  -0.332   0.305  -0.833   0.168   0.148  -0.617
   0.678   0.148  -0.009   0.864   0.089  -0.421   0.589   1.139   0.805  -0.313
  -0.950  -0.234  -0.499   0.070   0.638   0.972   0.903  -0.048  -0.009  -1.068
  -0.097   1.188   0.442   0.491  -0.323  -0.489   0.413   0.776   0.550   0.001
  -0.205   0.109   0.011  -0.695  -0.352   0.276  -0.793  -0.872   0.138   0.070
   0.177  -0.283   0.629   0.334  -1.029   0.403  -0.489  -1.166  -0.774  -0.646
   0.109   0.442   1.197   0.776   0.893   0.893  -0.352  -0.587   0.177   0.246
  -0.774  -0.009   0.511  -0.656  -0.264  -0.509  -0.372   0.531  -1.166  -0.793
  -0.313  -0.852   0.158  -0.882  -1.274  -0.656  -0.686   0.697   1.060  -0.146
   0.403  -0.313  -1.235   0.128  -0.009   0.011   0.011  -0.538  -0.391   0.177
  -0.117  -0.470   0.835  -0.431  -0.891   0.285   0.481   1.276  -0.028  -0.793
  -0.028  -0.254   0.011   0.531  -0.028  -0.303  -0.617  -0.283   0.658  -0.764
   0.030   1.511   0.786   0.903   0.374   0.589   0.011  -1.284  -0.185   0.668
   0.295  -0.470  -1.176  -0.931  -0.489  -0.489   0.501   0.285   0.060   1.452
   0.207  -0.931  -0.146   0.266   0.226   0.070   0.393  -0.156  -0.529   0.707
   0.423  -0.146  -0.009  -0.715   0.226   1.286   1.286   0.629   0.580   1.237
  -0.882  -0.872   0.511  -0.254  -0.225  -0.725  -0.656  -0.587  -0.166  -0.019
  -0.970   0.393  -1.411  -2.068   0.580  -0.715  -1.274  -0.460   0.413   0.040
  -0.705  -0.421  -0.323   0.501  -0.068  -0.097   0.177  -0.499  -0.480   0.021
   0.648   0.550   0.511  -0.068  -0.852  -0.185   0.236  -0.205  -0.950  -0.382
   0.050  -1.205  -0.676  -0.362  -0.431  -0.303  -0.774  -0.107  -0.558  -0.028
   0.285  -1.186  -0.764  -0.744  -0.303   0.138   0.423   1.482   0.079   0.550
   0.472  -0.715   0.668  -0.234  -0.176   0.805   0.217   0.521   0.825  -0.078
  -0.342  -0.391  -0.391   0.393   0.423   1.521   0.717  -0.686  -0.048  -0.028
  -0.293  -0.401   0.344  -0.283  -0.538  -0.558  -0.705   0.334  -0.087  -0.068
  -0.136  -0.538  -0.097   0.236   0.158   0.236   0.148  -0.411   0.786   0.364
  -0.391   0.295  -0.960  -0.852  -0.921  -0.382   1.099  -0.234  -1.205  -0.499
  -0.470  -1.382  -0.254  -0.087  -0.489   0.030  -0.332   0.334  -0.117  -0.117
  -0.587  -0.391   1.011  -0.754  -1.107  -0.480  -0.303   0.383  -0.842  -1.480
  -0.195   0.276   0.374  -0.342  -0.754  -0.372  -0.725  -0.568  -0.872  -0.558
  -0.735  -0.382  -0.127  -1.196   0.472  -0.038  -1.068  -0.293  -0.195  -0.028
  -1.372  -0.725   0.491  -0.264   0.560   0.177  -0.087   1.060  -0.244  -1.411
  -1.441  -0.293   0.393  -0.587  -0.234  -0.087   0.658   0.226  -1.156   0.128
  -1.048  -1.656  -0.342  -0.627  -0.666  -1.656  -0.950   1.286   0.305  -1.362
  -0.225  -0.617  -1.245   0.011  -0.852  -0.666   0.217  -0.646  -0.833   0.393
   0.276  -0.754  -0.646  -1.039  -0.107   0.109  -0.480   0.766  -0.019  -0.803
   0.207   0.540   0.560   0.060   0.021   0.128  -0.440  -0.529  -0.195   0.423
   0.717   0.089  -0.244  -0.097  -0.411  -0.156  -0.519  -0.744   0.315   0.011
  -0.372  -0.136   0.226  -0.597  -0.852   0.109  -1.088  -1.382  -0.519  -0.117
  -0.303  -0.999   0.158   0.256  -0.440   0.021  -0.068   0.491  -0.440  -0.725
  -0.234  -1.196  -0.872  -0.882   0.580   0.315  -0.852   0.217   0.001   0.746
  -0.087  -0.754   0.550   0.334  -0.136   0.344   0.334  -1.097   0.540   0.962
  -0.980   0.119  -0.303  -0.489  -0.205  -1.480  -1.019  -0.352  -0.813  -1.078
   0.168   0.344  -0.587  -0.323  -0.146  -0.382  -0.107   0.991   1.011  -0.244
  -0.862  -0.529  -0.215   0.089   0.393   0.786   0.540  -1.009  -1.068   0.040
