Uncorrected accelerogram I10918C01            Inst Geological & Nuclear Sciences
Site 918C     041 17 10S  174 46 05E                      IDS file .. 54100900  
Wellington Seismological Observatory                                            
Instrument IDS_541     Unit S/N: 541  FS=2.0g SPS=250 Gain=1 Filter=50          
16 bit resl, Triggers:BOTH STA=0.5/LTA=10 (Non-Updating) Alpha=12 Threshold=0.1 
Accelerogram I10918C01                              Processed 2010 November 09  
20 km north of Wellington                                                       
2010 January 08     21:54:11 UT                                                 
Epicentre  41 06 43S 174 44 20E  Bearing N07W  Dist   20km  Depth  33Rkm Ml 3.74
Number of points   3000    Duration  15.00 seconds                              
Raw readings in units of 1.00 mm/s/s at intervals of 0.005 s                    
Data is unfiltered                                                              
Component N07W                                                                  
Acceleration:  Peak     10.8 mm/s/s at   5.69 s     RMS     2.02 mm/s/s         
Velocity record unevaluated                                                     
Displacement record unevaluated                                                 
    2010       1       8      21      54     118       0       0       0       0
      41       6      43     174      44      20      33       0       0       0
      41      17      10     174      46       5     353     353     353      20
    3750       0       0    3000       0       0       0       0       0       0
    50.0    0.75    0.00   0.000  0.0000   0.000   0.000   1.000     0.0    0.00
  41.286 174.768  41.112 174.739    3.74    0.00    0.00      0.      0.      0.
   15.00    0.00    0.00   15.00  0.0040  0.0050      0.      0.      0.  9807.0
    10.8    5.69     2.0      0.      0.     0.0    0.00     0.0     0.0   0.000
    0.00    0.00    0.00    0.00   0.000    0.00    0.00    0.00    0.00   0.000
   0.000   0.000   0.000      0.      0.   0.000   0.000   0.000      0.      0.
   1.272  -0.915  -1.828  -1.622  -2.320  -0.919   0.047   1.171   1.870   2.183
  -0.070  -0.990  -1.721  -2.304  -1.028  -0.549   0.074  -0.440   1.726   2.496
   3.067   2.764   1.944   0.448   0.074  -1.286  -2.633  -3.647  -2.919  -1.303
   0.884   1.101   3.067   1.925   1.717   0.163  -1.123  -3.104  -2.510  -2.796
  -2.320  -0.827   0.722   1.735   2.469   2.418   2.809   2.711   1.272  -1.036
  -2.704  -3.381  -3.517  -1.835  -0.196   1.024   1.272   1.276   1.294   1.182
   1.870   0.567   0.454  -0.374  -1.123  -1.107  -1.145  -0.801   0.673  -0.649
  -0.688  -1.760  -0.524  -1.271  -0.553   0.585   0.673   0.148   0.746   0.672
   0.673   0.362  -0.198  -0.911   0.074   0.546   1.975   2.295   1.272  -0.350
  -0.770  -1.498  -1.123  -1.637  -1.389  -1.330  -0.524   0.999   2.309   2.060
   1.272   0.639  -1.272  -1.567  -0.524  -0.345  -0.313   0.479   0.074   0.927
   0.169   1.343   1.870   1.779   0.664  -0.399  -1.123  -0.951  -0.675   0.973
   0.074  -0.424  -1.543  -1.462  -1.123  -0.457  -0.527  -0.582  -0.524  -2.071
  -0.623  -1.087  -1.721  -0.744  -1.061  -1.985  -0.524   1.749   3.446   4.181
   3.666   2.112  -0.668  -2.115  -4.116  -3.173  -2.027  -0.844   0.074  -0.373
   1.172   1.063   3.666   4.377   3.149   0.948  -1.123  -2.472  -3.386  -2.576
  -2.320  -0.919   0.005   1.580   2.469   1.236   0.455  -1.047  -1.721  -2.541
  -2.551  -2.954  -0.524   0.800   1.819   3.131   1.870   2.444   1.618   0.267
   0.074  -1.944  -1.312  -1.564  -1.721  -1.823  -0.822   0.421   3.067   3.722
   3.029  -0.428  -2.919  -4.276  -5.219  -3.971  -2.919  -1.220   0.298   2.502
   3.666   3.713   3.194   1.188  -1.721  -3.816  -3.662  -1.665   1.272   2.064
   3.830   3.896   3.067   2.067   0.119  -2.085  -1.721  -3.492  -3.634  -2.096
   1.272   1.670   2.834   3.112   0.673   0.709  -0.905  -1.798  -2.320  -4.166
  -3.248  -4.637  -2.919  -2.101  -0.556   1.424   3.067   2.712   0.581  -0.517
   0.673   3.016   4.193   3.050   3.666   1.335  -0.514  -2.169  -1.721  -1.647
  -0.758  -0.500  -0.524  -0.583   0.034   1.135   1.870   1.116   0.239   0.640
  -0.524  -0.698  -2.340  -3.867  -4.714  -5.170  -3.298  -0.461   1.870   5.098
   4.881   1.072  -1.721  -4.450  -4.781  -3.973  -1.721  -2.187  -0.702  -0.170
   1.870   4.889   5.782   6.048   4.265   3.383   0.624  -1.600  -1.721  -2.950
  -1.873  -2.151  -2.320  -0.714  -0.108   2.304   4.265   5.026   3.752   1.478
   0.074  -2.048  -3.774  -5.744  -5.912  -5.741  -3.795  -1.722   2.469   5.140
   5.489   5.176   2.469  -0.591  -2.761  -3.359  -3.517  -2.272  -1.675   1.388
   3.067   4.922   3.865   3.385   0.673  -0.721  -2.956  -4.722  -4.116  -1.782
   1.601   4.557   5.462   5.236   3.719   1.393  -2.320  -4.443  -5.775  -5.161
  -2.919  -1.975   0.237   1.008   3.067   3.015   3.137   2.606   1.870  -0.039
  -0.379  -2.058  -2.919  -2.275  -2.101  -0.960   1.870   3.458   3.716   3.182
   0.673  -1.460  -2.768  -5.446  -5.912  -4.790  -2.286   0.021   2.469   3.346
   4.422   3.834   3.067   3.164   2.245   0.387  -1.721  -3.204  -4.623  -3.835
  -2.919  -1.153   1.437   2.319   3.067   2.945   2.203   1.015  -0.524  -1.371
  -2.816  -2.121  -0.524  -0.271   0.678   1.598   1.870   1.748   1.220   0.987
  -1.123  -1.147  -2.378  -3.021  -2.320  -1.483   0.185   0.711   0.673  -0.127
  -0.480  -1.088  -0.524  -2.643  -2.926  -2.662   0.074   1.725   3.176   3.498
   3.666   2.990   1.391  -1.149   0.074  -1.958  -1.400  -0.716   0.673   1.997
   3.367   4.484   2.469  -0.609  -2.738  -3.425  -2.919  -1.480  -1.195  -0.242
   0.673   0.507   0.303   0.759   0.074   0.487   1.894  -0.073  -1.721  -1.853
  -0.365  -0.297   1.272   1.914   1.406  -0.381   0.074  -0.171  -1.550  -1.688
  -2.320  -2.032  -1.106  -0.278   1.271   3.474   4.372   3.896   2.469   1.487
  -0.419  -0.451  -1.721  -2.879  -2.206  -2.441  -1.123  -0.247   0.917   2.650
   3.666   3.274   1.622  -0.577  -1.123   0.027  -0.488  -1.462  -1.721  -2.506
  -3.029  -2.413  -2.320  -0.958   0.322   2.154   3.666   2.381   1.974   0.717
   0.673   0.014   0.095   0.056   0.074  -0.577  -0.548  -0.131   0.673   0.004
   0.100   0.048   0.074  -0.334   0.880  -0.106  -2.320  -2.433  -2.753  -1.547
   1.271   2.735   2.426   2.362   1.272  -0.254  -1.279  -0.650  -0.524  -0.205
   0.244  -1.039  -1.123   0.047  -0.446   1.089   0.673  -0.716  -1.452  -1.764
  -1.721  -1.230   1.166   1.689   2.469   2.200   1.146   1.318   0.673  -0.722
  -1.458  -1.733  -1.721  -1.049   0.546   0.644   3.067   2.351   2.434   2.970
   2.469   2.000   2.119  -0.202  -1.123  -3.016  -3.517  -3.765  -2.919  -2.092
  -0.314  -0.504   1.271   1.840   2.191   2.165   0.673   1.296  -0.047  -0.439
  -1.721  -1.196  -1.489  -1.146  -0.524  -1.379  -1.246   0.101  -0.524   0.900
   1.617   1.563   0.074   0.714  -0.832  -2.327  -1.721  -0.791  -0.046   1.897
   3.067   3.636   2.642   2.625   0.673   0.623  -0.298  -0.545  -0.524  -0.535
  -0.444  -1.066  -0.524  -1.235  -0.788  -0.546   0.074  -0.165  -1.560  -1.655
  -2.320  -0.760   0.424   1.067   2.469   2.948   2.542   1.460   1.870   1.357
   1.607   1.396  -0.524  -0.285  -0.463  -1.247  -0.524  -0.687  -0.959   0.307
   1.870   0.550   0.516  -0.841  -1.721  -1.818  -2.552  -0.943   0.074   0.651
   1.346   1.361   2.469   3.245   3.450   2.672   0.673  -1.985  -2.854  -4.096
  -3.517  -2.773  -1.950   1.197   3.067   4.353   4.344   3.373   2.469   0.663
  -1.528  -2.606  -3.517  -3.442  -2.286  -1.327   0.074  -0.628  -0.307   0.991
   1.870   1.641   0.220   0.189  -1.721  -2.575  -1.174  -1.958   0.074   1.222
   3.168   4.029   3.067   0.399  -0.407  -2.138  -2.320  -3.059  -2.145   0.239
   1.870   1.445   2.641   2.341   3.067   1.167   0.506  -1.169  -0.524  -1.258
  -0.526   0.467   1.870   1.357   1.571   1.782   0.673  -0.630  -3.966  -5.682
  -4.714  -3.322  -2.414  -0.461   2.469   3.936   3.624   3.554   2.469   1.123
   0.075  -0.976  -2.320  -3.328  -2.301  -1.384  -1.123  -0.528   0.103   0.570
   2.469   2.277   1.841  -1.160  -1.123  -1.147  -1.194  -0.579  -1.123  -0.519
   0.110   0.535   2.469   2.216   3.263   2.425   1.870   0.972  -0.017  -0.227
  -2.320  -2.741  -0.997  -0.480  -0.524  -0.442   0.528   0.107   1.272   0.222
   0.221  -1.130  -1.721  -1.648  -0.728  -0.610   0.673   0.409   0.965   1.561
   0.673   0.713   0.374   0.035   0.074   0.297  -0.064   0.876   0.673   1.636
   2.368   0.950   0.074  -0.105  -1.882  -2.232  -3.517  -2.929  -3.874  -4.237
  -2.919  -1.137   1.092   2.127   3.067   1.613   1.280   0.898   0.074   1.297
   0.317  -0.335  -1.123  -0.587  -1.173  -1.217   0.074   0.851   1.166   2.593
   3.666   3.175   3.320   1.003   0.075  -2.074  -1.874  -2.769  -1.721  -2.078
   0.161   1.649   1.870   1.794   0.739  -0.947  -1.123  -2.577  -2.909  -3.043
  -1.721  -1.394   0.537   1.023   2.469   1.571   1.978   1.513   1.870   0.433
  -0.245  -0.556  -0.524  -0.431   0.465   0.585   1.870   1.707   1.163  -1.233
  -1.721  -2.774  -4.252  -1.204   0.673   2.114   2.425   2.989   2.469   1.439
  -0.127  -2.508  -1.721  -1.200  -2.148  -1.858  -1.721  -1.049  -1.216  -0.342
   1.870   2.528   2.114   2.020   0.074  -0.072  -0.069  -1.469   0.074   0.103
   1.178   3.297   3.666   2.470   1.453  -1.363  -2.919  -3.618  -2.899  -2.295
  -1.721  -0.105   0.179  -0.642   0.074   0.654   1.262   1.926   1.870   1.034
  -0.818  -2.702  -3.517  -4.076  -3.003  -0.938   0.074  -0.386  -0.505  -0.985
  -2.919  -1.783  -3.373  -3.564  -2.919  -2.388  -1.256   1.399   4.264   5.906
   7.452   7.120   8.455   8.359   7.208   6.342   3.068  -1.193  -4.227  -5.862
  -5.912  -5.562  -6.159  -4.072  -0.525   0.460   1.224   2.515   3.666   5.169
   6.463   6.656   6.659   6.160   6.452   5.709   3.666   2.984   1.773  -1.358
  -1.721  -4.302  -4.613  -5.758  -7.109  -7.676  -8.268  -9.077  -7.707  -6.879
  -5.169  -1.810   0.673   3.552   4.092   3.146   3.067   2.198   0.684  -0.891
  -1.123  -0.685  -0.391   1.614   3.067   3.836   4.247   4.757   4.265   2.861
   2.231   0.996  -0.524  -2.039  -3.320  -3.509  -4.116  -5.400  -5.447  -6.948
  -6.510  -6.438  -5.528  -5.104  -1.722   0.244   3.904   5.183   6.060   6.472
   6.964   7.420   7.856   7.180   7.173   5.171   4.265  -0.544  -1.580  -3.682
  -5.313  -5.081  -3.521  -1.941  -1.123   0.781   1.176   2.372   3.067   3.590
   2.861   1.092  -0.524  -4.245  -6.646  -7.255  -5.912  -5.110  -3.191  -1.428
   0.074   0.380   0.735   0.479   0.673   1.280   1.797   2.985   3.666   4.749
   4.939   4.186   2.469  -0.209  -1.111  -1.827  -1.123  -0.509  -0.254   0.170
  -0.524  -0.619  -1.401  -2.304  -1.123   0.322   0.377   0.412   1.272   0.094
   0.578  -0.869  -1.721  -2.333  -2.636  -2.592  -1.123  -1.391  -2.620  -3.844
  -4.714  -6.100  -5.173  -5.305  -3.517  -3.369  -1.636  -0.393   3.067   5.291
   7.397   7.943   7.257   6.546   5.441   4.456   3.067   3.000   2.100   1.852
   1.870   1.764   2.845   3.229   3.666   3.802   4.044   3.579   3.666   1.639
   0.613   0.184  -1.721  -2.734  -4.173  -5.029  -5.313  -5.329  -5.260  -5.748
  -6.510  -6.903  -5.741  -6.065  -4.714  -5.322  -4.135  -2.585  -1.721  -0.585
   1.769   2.226   3.666   4.679   8.121   9.028  10.250  10.351  10.803   8.790
   7.856   4.286   1.997  -1.271  -2.918  -5.327  -5.238  -5.580  -4.714  -4.765
  -4.341  -4.595  -4.116  -3.498  -3.326  -2.026  -0.524   0.594   0.357   0.216
   0.074  -1.213  -1.383  -1.779  -1.721  -2.230  -1.771  -0.773  -0.524   1.125
   3.184   4.068   5.462   5.268   5.136   5.155   3.666   3.485   1.834   0.390
  -1.123  -1.848  -2.697  -2.847  -4.116  -4.613  -4.038  -4.162  -3.517  -1.923
  -1.373  -1.359  -0.524  -0.423   0.338   1.556   3.067   4.175   4.103   5.465
   4.863   4.946   4.246   3.653   3.067   2.193   2.790   3.259   3.067   0.888
  -0.540  -1.624  -2.320  -3.493  -2.889  -5.184  -3.517  -4.633  -3.329  -3.611
  -2.919  -3.725  -4.116  -4.505  -5.313  -4.674  -4.453  -3.761  -1.722  -0.241
   1.252   2.856   3.067   3.172   3.938   2.130   3.067   3.116   4.071   3.914
   2.469   1.952   2.643   1.573   0.673  -0.286  -0.794  -1.471  -1.123  -1.252
  -1.952  -0.569  -2.320  -0.972  -0.951   0.055  -0.524   0.238  -0.783  -2.289
  -2.320  -2.182  -1.730  -1.230  -1.123   0.201  -0.003   0.490   1.272   1.279
   2.927   3.153   4.264   3.530   4.047   3.843   3.067   1.987   1.681   0.237
  -1.721  -2.979  -3.041  -4.626  -3.517  -4.111  -3.163  -2.531  -1.123  -0.452
   0.886   0.241   1.272  -0.042   1.538   0.829   1.870   0.646   1.366   1.292
   1.271   2.455   1.786   1.855   1.870   0.472  -0.342   0.024  -1.123  -1.934
  -1.794  -0.985  -1.721  -1.942  -3.285  -3.988  -4.116  -3.388  -2.417  -3.366
  -1.722   0.361   0.351   0.472   1.271   1.723   1.807   2.507   3.067   3.533
   3.376   3.165   3.666   2.981   3.136   2.643   1.870   1.049   1.030   0.428
  -0.524  -0.465   0.814   0.777   1.870   3.030   2.225   0.598  -1.721  -3.400
  -4.779  -5.279  -4.116  -4.089  -2.837  -2.307  -1.721  -1.118  -0.805  -0.597
   0.673   1.459   1.622   1.239   0.673  -1.159  -0.363  -1.000  -1.123  -0.260
  -0.596  -0.266   0.074  -0.694  -1.218  -0.691   0.074   0.782   1.933   2.468
   3.067   3.043   3.122   2.634   1.870   1.396   1.576   1.727   1.272  -0.083
  -1.175  -1.715  -2.320  -2.549  -3.722  -2.961  -3.517  -2.689  -2.519  -3.432
  -2.919  -1.119   0.272   2.496   3.067   4.982   5.165   5.080   4.265   3.408
   1.875   0.315  -0.524  -1.968  -2.276  -2.836  -2.320  -1.417  -0.467  -0.097
   0.673   1.963   2.005   3.243   0.673   1.891  -0.406  -1.154  -1.721  -3.436
  -4.571  -4.054  -4.116  -3.228  -1.962  -1.286  -0.524   0.395   1.266   2.168
   2.469   2.176   2.296   1.182   0.673  -0.597  -0.740  -1.614  -1.721  -1.026
  -1.504  -1.258  -1.123  -0.721  -1.847  -1.747  -1.123  -0.386   0.423   0.695
   0.673   0.769   1.633   1.636  -0.524   0.635  -1.270  -1.821  -1.123  -1.115
  -1.270   0.178   1.870   2.702   4.377   4.900   4.863   4.082   3.503   1.636
   1.271   1.156   0.367  -0.383  -1.123  -2.678  -1.776  -0.307  -1.123   0.362
   0.401   0.029   0.074  -0.762  -0.731  -1.484  -1.123  -1.096   0.232   0.149
   1.271   1.010  -0.349  -0.488  -1.123  -0.933  -0.854  -0.345   1.272   0.265
   0.020   0.341  -0.524  -0.553  -0.190  -0.280  -1.123  -0.725  -1.782  -2.238
  -1.721  -1.464  -0.539   0.472   0.074   0.707  -0.720  -0.262   0.074  -0.262
   0.364   1.044   0.673   1.086   0.008  -0.438   0.074   0.211   0.471  -0.079
   1.271   1.104   0.682   0.210   0.074   0.109  -0.269  -0.140   0.673   0.499
   0.336   0.642   1.272   0.519  -0.466  -1.784  -0.524  -1.166  -1.511  -0.839
  -0.524  -1.018  -0.695  -1.614  -1.721  -1.226  -1.515  -1.016  -1.721  -1.871
  -2.067  -1.743  -1.123  -0.996  -0.566   0.357   1.271   2.086   2.193   1.911
   1.272   1.767   1.610   0.976   0.673   0.624   1.023   0.877   0.074  -0.580
  -0.456  -0.975  -1.123  -0.610  -1.123  -1.635  -1.123  -0.148   0.076   0.293
   1.272   1.888   2.181   2.155   0.673   0.551   0.138  -0.894  -0.524   0.011
   0.969   1.945   1.870   0.298  -0.629  -0.448  -1.123  -1.271  -1.471  -1.138
  -0.524  -0.582  -0.160  -0.365  -0.524  -0.486  -0.899  -0.625  -1.123  -1.177
  -0.455  -0.384   0.074  -0.077  -0.578  -0.518  -0.524  -0.492  -0.828  -1.139
  -1.123  -0.470  -0.505  -0.902  -1.721  -0.384  -0.646   0.045  -0.524   0.640
   0.331   0.268  -0.524  -1.560  -0.445  -0.040   0.074   1.242   0.809   1.821
   1.870   3.083   2.122   1.435   0.673   0.844   1.041   0.590   1.272   1.918
   1.833   1.961   1.271   2.601   2.431   2.479   2.469   2.322   1.929   0.943
   0.673   0.572  -0.314  -0.434  -1.721  -1.622  -2.353  -2.893  -3.517  -2.158
  -2.629  -3.043  -2.320  -3.399  -2.103  -2.814  -2.919  -2.837  -1.873  -2.263
  -1.123  -0.663  -0.894  -0.469  -0.524   0.183  -0.382   0.460   0.074   0.714
   1.021   0.796   1.271   1.872   2.180   2.426   3.067   2.466   1.838   1.648
   1.870   0.404   0.329   0.762   0.074   0.244   0.467  -0.353  -1.123  -0.708
  -1.884  -1.368   0.074  -0.479   0.068  -2.078  -1.123  -0.474  -0.841  -1.108
  -1.123   0.851   0.603   0.756   0.074   0.658  -0.364  -0.079   0.074   0.202
   0.778   0.247  -0.524  -1.455  -2.160  -1.561  -2.320  -0.570  -0.276   0.312
   0.074   0.195   0.739   0.650   0.673  -0.036   0.531  -0.311   0.673   1.623
   1.133   1.944   1.870   2.189   2.592   1.782   1.870   0.949   0.035  -0.400
  -0.524  -1.043  -0.544   0.070  -1.123  -0.553  -1.330  -3.141  -3.517  -2.652
  -3.059  -2.153  -1.721  -0.248  -0.013   0.977   1.272  -0.004  -0.177  -0.624
   0.074  -0.907  -1.303   0.094  -0.524   0.257   0.936   1.822   1.272   1.412
   1.978   1.420   0.673  -0.632  -0.475  -0.603   0.074  -0.584  -0.600   0.323
   1.272  -0.069   0.247  -0.933  -0.524  -0.375  -0.244  -0.002  -0.524   0.663
   0.183   1.305   0.075   0.096   0.150  -0.482   0.074  -1.290  -0.789  -0.486
  -0.524   0.263   0.701   0.727   0.074   0.028   0.580  -0.813   0.074  -0.135
  -0.249   0.029   0.673   0.310   0.969   1.646   1.272   1.561  -0.090  -0.037
   1.272  -0.296  -1.528  -1.644  -2.320  -1.265  -2.288  -0.765   0.074   0.567
   0.259   0.862  -0.524   0.855   0.302   0.162  -1.123  -1.023  -1.757  -2.034
  -0.524  -0.412   0.088   0.511   0.673   0.264   1.513   0.616   1.870  -0.006
   0.797   0.636   0.673   0.170   0.509  -0.434  -0.524  -0.644  -1.263  -0.572
  -1.123  -0.435  -0.627   0.023  -0.524   0.112   0.409   0.249   0.074  -0.242
  -0.793  -1.517  -0.525   0.169   1.163   0.304   0.673   0.498   0.242   1.249
   0.673   1.544   1.293   0.668   0.074  -0.104  -1.826  -2.439  -1.721  -2.419
  -2.039  -1.301  -0.524  -1.054  -0.514  -0.032  -0.524  -0.901   0.192   0.102
  -0.524  -1.290  -1.797  -1.366   0.074   0.185   0.676   1.148   1.271   1.934
   1.842   1.910   1.272   0.785   1.090   0.215  -0.524  -0.392   0.201  -0.439
  -0.524  -1.703  -1.097  -0.638  -0.524   0.855   0.061  -0.657   0.074  -0.596
  -0.505  -0.524  -0.524  -0.618  -1.504  -1.667  -2.320  -1.767  -2.466  -1.819
  -1.721  -1.191  -1.792  -1.735  -1.123   0.116   0.528  -0.455   1.870   1.574
   2.048   0.994   1.870   1.318   1.736   0.699   1.271   1.269   1.095  -0.289
  -0.524  -0.816  -1.580  -0.677   0.074  -0.628  -0.205   0.104   0.074   0.074
   0.071   0.089   0.074   0.764   0.351   0.067  -0.524  -1.683  -1.101  -0.645
  -0.524  -0.025  -0.292   0.078   0.075  -0.986   0.249  -0.025   0.673   0.133
   0.732   0.738   0.074   0.655  -0.337  -0.433  -1.721  -1.560  -1.075  -1.118
  -1.123  -0.346   0.180  -0.408  -0.524  -0.325  -0.533  -0.690  -0.524   0.643
   0.221   1.183   1.272   1.425   1.701   0.725   0.673  -0.490  -0.077  -1.018
  -1.123  -0.629  -0.902  -0.471  -0.524   0.291   0.429  -0.002   0.673   1.166
   0.743  -0.334   0.074  -0.442  -0.164  -0.489  -1.123  -0.613  -0.883  -0.560
   0.074  -0.427  -0.222  -0.032  -0.524   0.364  -0.004   0.332   0.673  -0.052
   0.791   0.701   1.870  -0.118  -0.076  -1.141   0.074  -0.250  -0.928  -0.499
  -0.524  -0.957   0.510   0.686   0.673   0.638  -0.797   0.349  -0.524  -0.558
   0.166  -0.140  -1.123  -1.150  -0.825  -0.491  -0.524  -0.563  -0.184  -0.040
   1.272  -0.104   0.396   0.768   0.074   0.910   0.992   0.709   0.074   0.741
   0.703   0.239  -0.524  -0.849  -0.380  -1.243  -0.524  -0.041  -0.298   0.116
   0.074   0.107  -0.236  -0.514  -0.524   0.458  -0.008   0.250   0.673   1.208
   0.321  -0.009   0.673   0.742  -0.057   0.405   0.075   0.173  -0.592  -0.716
  -0.524  -0.539  -0.376  -1.569  -0.524  -0.855  -1.526  -1.095  -1.123  -1.660
