Uncorrected Accelerogram  O90400A1    Institute of Geological & Nuclear Sciences
Site 400A     041 05 44S  172 42 47E             Raw data file .. x97781.asc    
CDZ  Cobb Dam (north-west Nelson)                                               
Instrument: EARSS gain ranging recorder with Mark Products L4-3D 1.0 Hz geophone
Sensitivity: 0.178 volts/mm/s (Coil resistance: 5500 ohms)                      
Accelerogram O90400A1                              Processed 1998 September 17  
Lake Tennyson Earthquake                                                        
1990 February 10    0327 UT                                                     
Epicentre  42 15 00S 172 39 00E  Bearing S02W  Dist  128km  Depth  13 km Mw 5.93
Number of points   7501    Duration 150.00 seconds                              
Raw readings in units of 1.00 mm/s/s at intervals of 0.020 s                    
Data is unfiltered                                                              
Component N90E                                                                  
Acceleration:  Peak      -35 mm/s/s at  22.46 sec   RMS        3 mm/s/s         
Velocity record unevaluated                                                     
Displacement record unevaluated                                                 
    1990       2      10       3      27     420       0       0       0       0
      42      15       0     172      39       0      13       8       0       0
      41       5      44     172      42      47      90      90     182     128
    7501       0       0    7501       0       0       0       0       0       0
     0.0    0.00    0.00   0.000  0.0000   0.000   0.000   1.000     0.0    0.00
  41.096 172.713   42.25  172.65    5.80    6.04    5.93      0.      0.      0.
  150.00    0.00    0.00  150.00  0.0200  0.0200      0.      0.      0.  9807.0
   -35.3   22.46     2.9      0.      0.     0.0    0.00     0.0     0.0   0.000
    0.00    0.00    0.00    0.00   0.000    0.00    0.00    0.00    0.00   0.000
   0.000   0.000   0.000      0.      0.   0.000   0.000   0.000      0.      0.
  -0.220  -0.140  -0.230  -0.120  -0.210  -0.140  -0.220  -0.130  -0.220  -0.150
  -0.200  -0.170  -0.210  -0.150  -0.210  -0.130  -0.240  -0.110  -0.230  -0.140
  -0.220  -0.130  -0.230  -0.170  -0.190  -0.140  -0.200  -0.170  -0.220  -0.130
  -0.230  -0.130  -0.230  -0.130  -0.240  -0.130  -0.230  -0.150  -0.220  -0.140
  -0.210  -0.130  -0.230  -0.110  -0.270  -0.120  -0.230  -0.140  -0.240  -0.130
  -0.230  -0.140  -0.230  -0.130  -0.250  -0.110  -0.240  -0.120  -0.220  -0.180
  -0.190  -0.150  -0.240  -0.120  -0.220  -0.150  -0.220  -0.160  -0.200  -0.150
  -0.230  -0.130  -0.240  -0.140  -0.220  -0.160  -0.210  -0.140  -0.250  -0.110
  -0.260  -0.110  -0.260  -0.140  -0.230  -0.140  -0.230  -0.140  -0.230  -0.150
  -0.220  -0.150  -0.220  -0.180  -0.180  -0.180  -0.180  -0.170  -0.240  -0.140
  -0.220  -0.140  -0.240  -0.160  -0.230  -0.150  -0.230  -0.160  -0.260  -0.180
  -0.260  -0.120  -0.240  -0.150  -0.270  -0.130  -0.200  -0.180  -0.310  -0.180
  -0.290  -0.110  -0.310  -0.270  -0.420  -0.130  -0.190   0.020  -0.330  -0.170
  -0.250  -0.210  -0.340  -0.080  -0.340  -0.080  -0.310  -0.330  -0.450  -0.280
  -0.050   0.150  -0.210  -0.230  -0.520  -0.180  -0.360  -0.060   0.010  -0.200
  -0.620  -0.720  -0.640  -0.160  -0.120   0.400   0.390   0.140  -0.600  -0.920
  -0.900  -0.520  -0.330  -0.210  -0.590  -0.800  -0.660   0.680   1.140   0.830
  -0.370  -1.330  -1.690  -1.620  -1.700   0.450   1.570   1.960   1.020  -0.410
  -0.550   0.380  -0.460  -0.630  -1.350  -1.300   0.010   0.910   1.350   1.090
  -0.040   0.010   0.140   1.390  -0.080  -0.820  -1.570  -0.560  -0.440  -0.550
  -1.480  -0.580   1.090   2.750   0.740   0.470  -1.160  -2.650  -3.980  -2.970
  -0.560   2.380   0.740   0.170   0.490   0.740   0.500  -0.770  -0.340   0.850
   1.160  -0.880  -1.200  -1.260  -0.270   1.540   1.910   2.640   2.040  -0.580
  -1.340  -2.550  -1.360   1.000  -0.830  -1.490  -2.830   0.480  -0.470   0.340
   2.330  -0.210  -1.480   1.010  -0.110   2.410   1.140  -1.930  -2.330  -5.940
  -3.420  -0.130   1.560   1.800  -1.400  -3.230  -0.610  -0.110  -0.340  -1.280
   1.710  -0.130  -3.270  -2.820   1.030   6.290   6.800   1.580  -0.650  -0.060
  -1.750  -2.190  -2.400  -1.130   1.750   0.800   0.100   0.300  -2.190  -0.850
   2.530   2.810   0.030  -4.310  -5.300  -3.790   2.560   6.350   6.410   3.320
  -1.400  -4.710  -5.540  -5.580  -2.060  -0.150  -1.480  -2.330  -1.230   5.260
   9.060   5.630  -3.240  -6.600  -8.640  -3.710  -1.710  -3.640  -2.890   1.890
   6.220  10.450   5.910   2.630   1.670   0.820  -3.470  -4.630  -3.630  -2.660
  -0.910   1.340   0.750   3.940   5.500   1.630   0.220  -1.460  -2.360  -5.300
  -5.020   1.080   5.560   4.880   1.970  -1.030  -2.180  -5.040  -2.000   3.710
   6.740   3.220  -4.350  -6.930  -5.340  -2.590  -1.630  -1.510   0.270  -3.630
  -7.360  -2.460   3.100   7.540   7.090   0.310  -4.180  -2.100   2.670   4.200
  -0.390  -4.370  -4.270  -2.960   0.820   4.200   3.510   0.650  -2.480  -2.350
   0.480   3.410  -1.640  -3.990  -3.970  -2.960   4.440  10.460  11.830   2.300
  -5.940  -3.130  -2.070  -0.960   0.010  -0.800   2.490   0.730  -5.180  -4.230
  -1.010   0.180  -1.850   0.660   1.610  -0.390  -3.650  -5.780  -0.270   3.510
   2.030  -2.650  -1.090   4.190   2.100   0.060  -2.310  -2.690  -0.640  -1.410
  -2.460   1.280   3.470   1.650   3.290   2.240   2.990   1.130  -1.260   1.210
   1.760   0.210   0.030  -2.480  -2.620  -0.910   0.310   0.130   0.380  -0.620
  -2.120  -4.070  -2.790  -1.420  -0.020  -2.130  -3.500  -2.100  -0.560  -0.570
  -2.470  -3.690  -1.250  -0.830   0.700   0.240   0.880   1.780   2.130   2.390
   2.190   2.920  -2.140  -5.400  -2.110  -0.540   1.000  -0.230   1.920   4.970
   6.960   4.070   5.170   5.350   6.880   5.860   0.220  -4.030  -3.140  -2.290
  -5.240  -5.890  -4.040  -4.700  -4.780  -3.670  -0.120   3.440   2.180  -0.970
  -2.990  -0.750   2.270   3.360   0.050  -3.690   1.550   3.290   1.890   1.040
  -2.050  -6.660  -9.390  -3.030   4.310   3.530  -1.630  -5.300  -6.000  -5.050
  -3.160  -0.860   2.110   6.050  10.040   2.350  -1.940  -0.630   1.520   7.460
   8.060   3.700  -0.530  -3.340  -4.150   0.200   3.160   1.080  -1.480  -3.270
  -3.430  -4.110  -0.910  -2.690  -6.220  -5.690  -3.110  -1.390   1.340  -1.390
  -5.380  -4.140  -0.780  -1.010  -4.030  -1.650   4.590   5.670   4.480   2.580
   4.290   3.210   0.280  -0.320  -1.350  -0.450   3.880   2.610  -0.130  -2.340
  -5.070  -6.960  -1.960   3.600   3.340   0.230  -4.900  -5.360   0.860   5.620
   7.700   5.410   1.910  -1.700  -3.300   0.630   1.710   2.120   2.530   2.100
   3.190   2.150   1.560   0.030  -4.750  -7.490  -4.290   0.810   3.730   1.370
  -3.220  -8.310  -7.110  -3.660  -0.400   2.150   1.600  -0.310  -0.060   0.440
  -0.510  -1.160   1.770   3.440   1.460  -0.680  -2.770  -2.170   2.010   5.650
   6.370   3.810   0.240  -2.600  -6.410  -8.680  -6.410  -3.030   1.210   4.660
   5.860   4.200   0.360  -5.010  -4.090   0.190   3.710   3.040  -1.650  -4.350
  -3.250  -2.690  -2.690   0.500   0.470  -2.120  -3.760  -4.150  -3.860  -3.120
   0.750   3.320   3.950   4.190   1.230   0.050   3.790   2.720   3.040   1.830
  -3.130  -7.550  -9.170  -5.980  -0.950   0.490   3.250   6.160   6.940   6.200
   0.780  -3.400  -1.050   4.680   4.110  -1.920  -1.790   0.480  -0.020   0.210
  -0.380   0.220  -1.960  -5.960  -4.570  -0.570   2.360  -3.390 -10.270  -7.750
  -0.850   2.530   0.860  -0.130   1.230   3.220   4.450   2.620   1.740   1.450
   1.750   0.190   0.140  -0.020   1.940   3.610   4.310   2.540   0.170  -2.650
  -6.500  -4.340  -1.540  -0.140  -1.300   1.310   4.150   6.170   6.900   4.630
   1.990   0.190   0.520   2.170  -1.760  -5.620  -4.150  -1.980   1.400   0.840
  -2.950  -6.260  -3.940  -0.310   1.090  -1.600  -0.290   0.910  -0.630  -2.390
   0.040   0.510   1.690   2.060   2.470   5.140   3.640  -3.230  -3.530  -1.370
  -1.670  -2.850  -7.150  -6.130  -0.290   4.410   4.630   1.890  -1.880  -3.890
  -2.670   0.890   3.140   3.200   1.580   0.580   0.870   3.830   5.270   3.340
   1.550   0.750  -2.080  -5.010  -4.790  -4.920  -3.680  -1.330  -2.210  -1.030
   1.460   2.690   1.890   1.140   0.420   2.600   2.460   2.950   3.760   0.190
  -2.590  -3.370  -0.520   1.450   0.890   0.220  -3.450  -7.050  -6.200  -4.010
  -1.230  -0.130   0.420  -1.540  -3.020  -4.010  -2.930   0.030   0.380   0.430
   0.630   1.700   0.750  -2.770  -2.610   0.220   5.090   8.910   7.270   3.570
  -1.590  -3.970  -1.950   1.140   2.030   1.190  -2.960  -2.530   0.430   0.900
   0.250   3.340   4.850   0.930  -3.490  -7.200  -8.270  -4.330  -1.560   0.080
   1.690   6.710   2.580  -2.530  -3.360  -2.340   1.400   4.780   5.950   3.570
   1.110  -0.200   0.520   2.160   1.560  -0.850  -2.500  -5.000  -6.120  -2.430
   2.470   3.430   1.720  -1.070  -1.790  -0.920  -1.210  -3.840  -3.850  -2.830
  -2.090  -1.620   2.070   4.890   5.230   0.500  -3.010  -5.670  -5.990  -1.130
   2.990   4.410   3.470  -3.390  -8.160  -6.560  -0.020   5.810   7.100   6.650
   5.760   2.420   0.990   0.500  -0.620  -2.040  -2.490  -0.740   1.430   2.360
   0.930  -2.150   2.270   6.510   5.900   1.670  -4.560  -5.820  -2.380  -0.260
   1.890   0.540  -5.760 -10.610 -10.040  -3.560   1.500   1.970  -0.420  -0.270
   0.630   1.810   3.490  -0.110  -2.880  -6.280  -5.570  -0.710   0.790  -0.470
   1.140   3.700   4.390   4.250   3.620   1.390  -0.620  -4.960  -4.090   2.100
   5.010   4.380  -1.340  -5.840  -4.520   2.520   8.060   6.050   3.900   3.130
   0.700   1.470   3.170   2.100   1.240  -1.550  -4.530  -7.030  -5.910  -7.800
 -13.900 -15.170 -11.000  -1.330   7.100   8.800   5.110  -1.960  -4.900  -5.630
  -6.280  -6.660  -9.070 -10.730  -8.260  -4.170  -3.130  -3.340  -0.100   3.350
   8.990  16.320  18.880  17.170   9.930   0.810  -2.310   0.380   3.150   0.230
  -1.620  -2.050   0.470   3.830   5.160   6.790   4.720  -0.600  -0.660   2.360
  -0.190  -4.960  -6.000  -4.220  -1.540  -2.660  -0.200   3.990   7.640   6.270
   0.980   2.810  11.820  15.990  10.680  11.250  13.370   6.430  -6.430 -16.240
 -14.980  -6.880   2.880   6.850   4.810   0.290  -0.130   3.570   1.980  -1.950
   0.060   5.230   8.010   2.020  -3.160  -6.150  -9.950  -6.900  -0.260   9.060
  13.010   3.790 -13.510 -19.570 -18.950 -11.310  -3.840  -5.970 -11.910 -14.020
 -11.030  -6.020  -2.100   5.030   8.510   6.330   3.630  -4.120  -9.740  -5.200
   3.260   9.650   8.010   4.250   4.600   1.750  -3.240  -0.740  -0.900  -8.760
 -14.730 -10.200  -3.650  -5.100 -10.840 -11.090  -3.470   6.130   4.940  -2.800
  -5.880  -5.290  -0.400   4.320   5.440   3.490   5.800   8.720   9.810  12.810
   9.780   5.120   5.110   2.770   0.050  -2.540  -2.490  -2.090  -0.460   3.200
   2.130  -3.210 -12.730 -18.480  -8.140   6.860   6.570  -7.330 -15.980  -8.490
   5.530  11.470  10.550   9.390   9.210  10.810   5.780  -6.440 -12.500  -8.730
  -2.110   5.270   5.370  -3.890 -12.840 -10.610  -0.920   8.050  11.030   6.820
   8.860  18.110  18.280   7.190  -3.520  -8.670  -9.140  -3.740   6.320  13.900
   7.640  -8.500 -27.660 -35.340 -24.420  -6.960   5.030   4.160  -5.610 -15.220
 -15.090 -12.600 -11.670  -1.910   6.270   0.910  -0.570   4.580  10.140  10.100
   7.830  -1.910  -7.580  -9.720  -7.150  -3.050  -3.090  -9.470 -10.870  -8.750
  -8.400 -10.410  -7.940  -3.050  -1.480  -4.330  -8.710  -8.250  -7.610  -6.300
   1.700  11.720  15.430  11.060   8.060   6.310  11.370  21.990  29.000  28.090
  20.440  10.640   5.420   6.840   8.890  10.250   9.710  11.390  11.840  13.620
   6.170  -3.450  -4.900   5.000  15.390   7.270  -9.610 -17.360 -16.150 -12.910
  -9.390   0.920  10.640  10.500   7.740   9.370   8.190   5.250   2.740   4.560
  11.290  14.190   5.230  -9.080 -21.610 -22.740 -10.950  -1.500   2.210  -0.580
  -4.130  -5.430  -6.570  -6.100  -5.590  -2.660  -2.300  -7.670 -14.890 -15.320
  -8.380  -3.310   0.610   0.020  -1.460  -0.370  -0.560  -5.220  -5.200   3.460
  12.110  14.400  10.930   8.100   9.320   5.850  -0.330  -1.840  -3.710  -8.840
 -12.020 -12.490 -12.070 -14.880 -19.260 -22.700 -14.780  -1.500   8.240  11.350
  12.690  15.190  16.270  15.780  16.430  14.760  14.370  11.540   2.800   0.430
   5.670  10.240  11.880   8.060   4.050  -1.450  -8.070  -7.340  -0.470   3.520
  -1.090  -6.310  -7.990  -8.500  -3.600   4.120   8.640   7.110   2.420  -2.250
  -0.370   4.350   6.160   3.010   0.250   0.350   4.510   3.900  -2.010  -7.030
  -7.230  -6.040  -2.340   8.570  14.550  10.430  -1.130 -11.410 -15.020 -12.180
 -10.780 -10.510  -9.170  -3.480   3.260   5.970   6.260   6.700  11.780  18.320
  18.360   9.880   0.530  -1.650   2.040   7.190  11.840   9.820   1.380  -2.690
  -1.030  -1.770  -6.990  -7.410  -3.340   4.310  10.480   4.970  -6.920 -14.960
 -14.840  -7.350   1.460   8.580   5.310  -4.950 -17.130 -25.080 -20.480  -6.980
   3.460   5.720   4.380   4.150   3.410   2.630   7.570  15.480  15.520   4.850
  -7.890 -14.000 -15.070 -14.720 -14.790 -17.020 -19.760 -19.320 -19.110 -16.240
  -8.610   0.140   2.790  -0.570  -2.290   1.350   6.430   7.270   3.440   0.260
   1.080  -1.180  -3.130  -0.400   7.160  10.520   9.140   5.560   5.050   8.010
  11.630  14.620  14.840   9.820   0.060  -7.240  -5.290   3.440   6.860   4.210
   3.340   2.910   2.510   1.980   4.120   4.900   0.330  -7.050 -10.530  -6.760
   1.330   5.160   4.100   1.780   0.260  -1.010  -2.960  -4.280  -6.750 -12.150
 -16.070 -15.250  -9.190   1.170   4.710  -1.730  -5.660  -3.940  -1.800  -4.940
  -6.710  -5.210   2.540   9.820  10.540   6.540   0.120  -4.200  -2.740  -0.840
  -3.330  -8.960  -9.320  -4.210   0.620   0.700  -1.340  -3.070  -1.450   0.110
   0.370   1.710   4.640   7.140   8.270   6.680   1.820  -3.760  -6.870  -4.780
   2.180  10.620  12.290   7.850   2.590  -0.290  -0.030  -1.000  -3.620  -4.160
  -4.810  -5.730  -4.630  -1.300   1.350   3.360   1.720  -3.180  -6.650  -3.940
  -0.490   0.470  -1.200  -2.910  -1.480   3.310   6.150   5.490   2.610   2.880
   4.430   3.440   2.820   1.980   2.970   6.040   6.340   4.520   1.300  -1.660
  -3.470  -4.490  -3.820  -1.810  -1.380  -2.760  -3.440  -4.860  -5.680  -5.520
  -2.220   0.530   1.670   2.340   4.980   8.660  12.000  14.490  11.500   6.760
   7.690  10.110  12.380  12.480   6.930  -1.560  -7.150  -7.640  -7.840  -7.840
  -7.630  -6.760  -2.900   0.030  -0.290  -2.890  -6.300  -5.880  -3.330  -4.390
  -8.460 -11.100  -9.150  -4.600   0.290   2.240   2.550   3.900   5.400   3.890
   0.620  -1.680   1.030   6.200   7.840   4.810  -0.940  -2.360  -0.150   2.980
   7.120   8.460   6.480   3.870   4.370   3.590   0.070  -3.200  -1.790   0.260
   0.870   0.130  -0.590  -1.650  -2.850  -2.510  -1.190  -0.030   1.900   2.440
   1.880   0.060  -2.000  -3.730  -4.420  -4.470  -3.420  -2.100  -0.700  -0.280
  -2.180  -4.840  -4.660  -1.960  -0.330  -0.220  -1.840  -2.240  -1.520  -1.420
  -2.440  -3.110  -2.570   0.890   3.490   2.570  -0.040   0.360   3.120   5.580
   6.560   6.590   5.730   5.600   3.910   1.720  -0.090  -0.500  -0.810  -0.760
   0.660   2.170   2.460   1.850   1.520   2.170   2.200  -0.780  -2.460  -1.260
   0.030   0.050  -0.690  -0.250  -0.200   0.000   0.340   0.900   0.340  -0.390
  -0.970  -2.180  -2.210  -0.530  -0.530   0.600   2.460   3.990   5.790   5.770
   3.570   1.140  -0.600  -1.110  -0.090   0.470  -0.990  -3.920  -6.620  -6.010
  -2.990  -1.660  -3.090  -3.930  -2.960  -2.430  -3.490  -2.130   2.180   7.950
  11.840  11.530   6.790   1.370  -1.170  -1.690  -2.770  -4.010  -4.980  -4.960
  -4.190  -3.270  -1.230  -0.530   0.350   1.540   0.460  -2.290  -4.460  -3.840
  -0.790   3.020   6.120   6.620   4.130   0.240  -2.450  -1.730   0.370   0.330
  -2.440  -6.240  -6.930  -4.960  -3.030  -1.030   1.380   1.990   0.590  -0.590
   1.920   5.760   7.260   4.840   0.680  -0.210   0.760   1.090   0.910   0.130
  -1.460  -3.610  -3.920  -3.180  -3.750  -5.460  -6.360  -5.880  -4.440  -3.440
  -3.470  -4.750  -4.300  -2.250  -0.930  -0.640   0.200  -1.290  -3.340  -1.430
   2.850   5.720   6.080   4.360   3.500   3.230   2.070  -0.180  -0.520   1.310
   2.000   0.840   0.160  -0.240  -0.530  -0.650   1.330   3.990   6.230   6.320
   2.160  -1.270  -1.170  -0.510   0.080   1.090   1.960   3.980   5.130   3.580
   2.490   2.030   0.360  -1.820  -2.600  -1.720  -0.700   0.360   1.830   4.100
   5.340   3.700   1.920   2.660   5.010   5.130   3.260  -0.730  -3.500  -2.950
  -0.390   0.950  -0.540  -2.610  -2.170  -0.720   0.110   0.210  -2.030  -4.520
  -4.460  -1.880   1.360   3.300   3.020   1.250   0.090   0.460   0.230   0.350
   0.640   0.050  -1.430  -3.260  -2.820  -0.110   2.500   1.950  -1.310  -3.520
  -2.470  -1.270  -0.820  -0.300  -0.520  -0.180  -0.440  -2.270  -4.040  -3.680
  -3.080  -2.980  -3.230  -2.910  -2.550  -3.330  -6.280  -9.080  -7.100  -2.890
   0.590   2.120   1.810  -0.040  -1.550  -2.620  -1.600   0.900   3.450   3.760
   3.300   2.750   1.180   0.550   1.330   0.990   0.240  -0.650   0.510   2.870
   4.290   2.930  -0.310  -3.190  -2.700  -0.670   0.960   0.890   0.190  -0.530
   0.320   1.790   2.600   1.800  -1.320  -2.570  -1.550   0.610   2.200   2.350
   1.730   1.450   1.130   1.490   2.690   5.250   7.070   7.040   4.410   0.330
  -2.680  -2.980   0.390   4.000   4.730   2.560   2.370   3.110   2.750   0.720
  -1.320  -1.850  -0.410   0.370   0.230  -1.110  -2.870  -2.360   0.910   3.830
   4.910   4.880   4.470   5.390   6.330   4.430   0.580  -0.350   2.060   4.150
   3.170  -0.260  -3.170  -3.080  -1.020   1.260   2.340   0.660  -2.800  -3.730
  -1.480   1.370   1.880   0.010  -1.940  -2.500  -1.260   0.760   0.300  -0.330
   0.030   0.860   1.630   2.180   1.320  -1.420  -3.150  -2.440  -0.610   1.740
   2.100  -0.410  -3.730  -5.480  -4.310  -2.440  -1.250  -1.540  -2.250  -3.490
  -3.730  -2.900  -1.740  -0.840  -0.370  -1.300  -2.110  -2.290  -1.850  -1.140
   0.200   0.280  -1.090  -2.900  -4.390  -4.610  -3.690  -3.000  -1.880  -2.310
  -3.900  -3.540  -0.810   1.540   1.920  -0.130  -2.150  -3.390  -3.170  -1.480
  -0.560  -1.270  -1.950  -1.090   0.200   1.460   3.280   4.270   5.260   6.270
   5.690   2.800  -0.790  -2.130   0.720   3.890   4.400   3.120   2.070   1.950
   2.640   3.650   4.580   3.920   1.100  -1.400  -0.560   1.590   2.810   1.840
  -0.100  -0.190   0.900   2.160   2.990   2.310   1.150   1.110   2.370   4.320
   5.100   3.190   1.080   0.390   1.020   1.100  -0.630  -2.020  -1.380  -0.350
  -0.110  -0.190  -0.840  -1.490  -0.720   0.200  -0.900  -2.200  -3.170  -3.040
  -1.550   0.650   0.900  -1.220  -2.960  -2.780  -2.170  -1.910  -2.790  -2.910
  -2.400  -1.350  -0.830  -0.830   0.180   2.140   2.720   2.780   2.930   3.400
   3.440   3.090   2.910   2.410   2.800   3.200   3.160   2.390  -0.390  -5.200
  -7.170  -4.430  -0.100   2.340   2.370   0.790  -0.580  -1.220   0.250   2.240
   3.180   1.910   0.710   1.130   1.920   2.290   2.100   1.030  -0.970  -3.070
  -4.260  -5.320  -5.950  -4.050  -1.620  -0.930  -1.680  -2.940  -2.420  -0.050
   1.930   2.170   0.830   0.490   1.340   1.330  -0.530  -1.900  -2.540  -1.800
  -0.270   0.060  -1.260  -2.960  -3.830  -4.170  -3.850  -3.260  -2.780  -1.420
   0.500   1.610   2.280   2.370   2.570   1.930   1.500   1.650   1.760   1.210
  -0.360  -1.500  -1.100  -0.380  -0.320  -0.800  -0.840  -0.220   0.880   1.630
   1.640   1.150   1.520   2.040   2.540   2.830   2.780   2.000   0.560  -1.550
  -2.510  -1.620  -0.980  -1.340  -1.800  -1.100   0.730   2.110   1.310  -1.030
  -2.550  -1.960  -1.490  -1.550  -1.730  -1.260   0.040   1.080   1.130   2.510
