Uncorrected accelerogram 2011.062.1319.11.CPLB.cmf GNS Science                  
Site CPLB       41 16 47S  174 46 55E                                           
Wellington CentrePort BNZ Building                                              
Instrument GNS Science SDP A9                                                   
Resolution: 18-bit   Instr Period:        Damping:                              
Accelerogram 2011.062.1319.11.CPLB.cmf          Processed 2011 October 27       
Unnamed earthquake                                                              
2011 March 03       13:19:20 UT                                                 
Epicentre  43 35 50S 172 24 26E  Bearing N36W  Dist  33km Depth  29km ML 4.6    
Number of points  16992    Duration  84.955 seconds                             
Raw readings in units of 1.00 mm/s/s at intervals of 0.005 s                    
Data is unfiltered                                                              
Component N90E                                                                  
Acceleration:  Peak    281.9 mm/s/s at 21.360 s     RMS    24.82 mm/s/s         
Velocity record unevaluated                                                     
Displacement record unevaluated                                                 
    2011       3       3      13      19     200       0       0    2011       3
      43      35      50     172      24      26      29       0       3      13
      41      16      47     174      46      55      90      90     324      33
   16992       0       0   16992       0       0       0       0      19   11810
     0.0    0.00    0.00   0.000  0.0000   0.000   0.000   1.000     0.0    0.00
 -41.280 174.782 -43.597 172.407    4.62    0.00    0.00      0.      0.      0.
    0.00    0.00    0.00   84.96  0.0050  0.0050      0.      0.      0.  9807.0
   281.9   21.36    24.8      0.      0.     0.0    0.00     0.0     0.0   0.000
    0.00    0.00    0.00    0.00   0.000    0.00    0.00    0.00    0.00   0.000
   0.000   0.000   0.000      0.      0.   0.000   0.000   0.000      0.      0.
     1.9     6.4     3.4     0.3    -5.2    -6.9    -2.1     3.7     6.5     1.3
    -3.5    -2.6    -6.0    -4.4     3.0     2.5     2.3    -0.6    -5.7    -3.1
    -1.2     1.5     5.0     4.2     0.7    -7.3    -5.8     3.4     3.4     3.0
     3.0    -2.9    -4.7    -4.6    -2.1     4.8     3.6     2.1    -1.0    -6.5
    -2.4     0.8     1.4     4.1     1.9    -0.2    -4.5    -8.1     1.9     5.2
     2.3     3.3    -3.0    -6.2    -3.9     1.6     6.5     2.8    -0.3    -2.5
    -5.1    -1.7     0.9     2.0     5.8     2.8    -3.7    -5.9    -4.7     2.0
     5.6     4.0     2.6    -3.6    -6.6    -3.4    -0.4     5.2     4.6    -1.6
    -3.3    -6.2    -3.4     4.0     3.4     2.0     0.3    -2.4    -3.1    -3.4
     0.8     5.8     4.9     0.2    -5.8    -7.7    -2.5     2.3     5.7     4.6
    -3.4    -5.5    -4.8    -2.6     5.2     6.0     2.0    -0.7    -5.2    -3.8
    -1.9     0.2     6.1     2.9    -1.6    -4.9    -7.7    -2.4     2.9     5.8
     4.4    -2.9    -7.0    -5.1    -1.1     4.6     4.1    -0.9    -1.6    -5.5
    -5.3    -0.9     1.2     6.8     4.2    -2.9    -4.6    -5.0    -0.2     3.2
     3.9     7.2    -1.0   -10.3    -4.3     0.2     2.9     4.7     1.2    -2.1
    -6.4    -3.5     3.1     1.5     2.6     3.5    -2.3    -3.3    -4.8    -3.1
     5.7     5.4     2.0    -2.4    -7.4    -2.1     1.6     2.9     6.9     0.4
    -6.3    -5.3    -3.2     3.8     3.4     1.4     3.1    -3.6    -5.7    -3.5
    -0.7     5.2     4.2     0.3    -2.6    -6.1    -2.1     2.5     3.5     6.6
    -0.3    -7.2    -2.7    -0.8     2.8     5.3     2.7     0.4    -4.9    -6.0
    -0.1     2.9     4.4     3.9    -0.5    -1.8    -6.4    -4.7     5.4     4.4
     3.4    -1.0    -7.0    -3.3    -2.1     2.4     6.2     1.6    -2.6    -5.2
    -4.0     1.0     0.8     0.3     3.1    -1.2    -3.3    -5.1    -4.0     5.5
     5.1     1.3    -0.9    -3.9    -4.5    -3.0     3.5     8.0     0.9    -5.0
    -2.6    -4.5    -1.6     4.1     2.5     2.7    -1.5    -5.8    -4.4    -3.3
     3.5     5.1     1.3     0.2    -5.8    -7.8    -0.3     4.7     5.2     1.5
    -4.3    -4.0    -4.3    -0.4     6.5     3.9     1.4    -2.6    -4.8    -0.8
    -2.7     2.9     9.7     1.2    -4.4    -5.1    -3.8     1.1     3.7     6.1
     2.2    -5.5    -4.1    -2.7     0.7     7.3     2.3    -1.4    -1.1    -4.6
    -4.0     0.5     5.4     5.7    -0.8    -4.1    -2.6    -1.8     1.0     3.3
     5.5     2.0    -8.5    -5.7     1.0     3.6     7.3     1.8    -0.4    -1.4
    -5.7     0.8     5.6     3.5     2.1    -0.5    -3.9    -3.7    -4.2     0.6
     5.8     2.6     1.5    -5.3    -7.1    -0.2     1.3     4.1     4.6    -2.6
    -6.2    -4.5    -0.5     3.8     1.8     4.2     0.9    -7.0    -2.4    -0.8
     1.0     5.1     0.9    -1.8    -4.3    -8.1    -2.2     5.0     8.1     4.2
    -6.5    -7.0    -3.1    -0.8     5.6     5.2     1.9    -1.0    -7.6    -2.7
     3.9     2.3     4.2     2.7    -0.6    -4.6    -9.9     2.1     9.2     1.1
    -0.3    -4.4    -6.7    -4.5     0.4     8.0     4.4    -2.6    -2.6    -4.6
    -2.3     4.8     2.0     3.1     4.0    -3.6    -5.5    -2.9     3.1     5.1
     2.0     3.9    -1.9   -10.1    -3.5     4.3     6.9     3.9    -3.6    -3.3
    -2.7    -2.9     2.5     4.6     4.9     0.3    -5.7    -1.9    -0.7     0.0
     6.2     6.2     0.6    -4.1    -8.4    -2.5     5.2     4.3     4.9    -1.9
    -5.6    -3.9    -3.7     4.4     6.9     3.1    -1.5    -4.8    -1.4    -2.1
    -1.3     8.1     5.9    -3.3    -3.7    -4.5    -2.2     4.4     6.2     5.8
    -2.3    -8.3    -4.4    -0.7     6.0     5.9    -1.0    -2.4    -4.5    -4.8
     0.0     4.1     6.4     3.3    -3.0    -4.1    -4.6    -1.3     4.9     4.8
     4.9    -2.7   -10.0    -2.6     1.1     2.6     5.2     0.6    -4.4    -5.6
    -3.4     2.0     3.5     2.4     2.8    -2.0    -4.3    -3.7    -0.7     7.6
     4.4    -0.5    -1.5    -6.2    -3.9     0.6     4.9     6.6    -0.3    -6.2
    -6.0    -2.0     4.0     3.2     0.2     3.2    -3.1    -6.4    -0.4     0.8
     4.9     3.8     0.8     0.1    -6.4    -5.4     2.7     6.6     5.5    -0.5
    -6.5    -4.3    -0.4     2.4     4.5     3.2     1.0    -5.0    -7.3    -0.1
     3.9     4.1     4.3    -0.9    -3.2    -5.4    -4.8     6.7     7.6     2.3
    -0.4    -5.3    -4.5    -1.7     4.1     9.4     2.1    -3.3    -4.0    -6.2
    -0.4     2.8     1.8     4.8    -1.6    -6.7    -3.5    -0.8     5.6     5.4
     1.0    -1.6    -6.6    -4.2     0.2     3.9     8.3     0.5    -6.0    -1.8
    -5.1    -2.5     7.2     5.4     0.9    -3.1    -3.9    -3.3    -2.5     5.7
     6.7     0.0    -0.5    -6.2    -8.3     2.6     5.9     3.1    -0.8    -5.3
    -3.2    -2.2    -0.3     6.3     3.6    -1.3    -3.6    -6.1    -0.9     0.8
     2.8     5.3    -1.0    -3.4    -4.0    -5.7     2.3     7.7     3.7     0.7
    -6.2    -5.4     0.4     1.2     6.0     4.3    -1.3    -2.7    -5.8    -2.7
     2.3     2.8     4.6    -0.3    -3.6    -3.9    -4.2     4.6     6.4     1.5
     1.1    -3.8    -6.1    -0.1     2.8     8.0     5.9    -3.2    -4.6    -4.5
     0.3     5.0     3.4     4.6     1.0    -6.4    -4.5    -2.6     1.8     6.7
     2.8     0.0    -3.8    -5.9     0.1     4.8     4.4     3.3    -2.4    -4.1
    -3.2    -1.3     6.0     3.0     1.0    -0.1    -7.0    -3.4     0.7     2.4
     4.6     1.4     0.5    -4.9    -8.8     1.7     5.4     3.4     3.8    -3.0
    -5.2    -3.2    -1.4     5.8     4.0    -0.2    -1.7    -5.8    -2.5     2.1
     2.8     3.3     1.0    -3.1    -3.6    -4.3     0.2     4.6     1.8     2.0
    -3.2    -7.0    -4.0     1.2     7.0     4.4    -1.6    -4.3    -5.4    -2.6
     4.1     3.4     2.5     2.4    -2.6    -4.2    -5.3    -0.5     6.7     4.3
     0.5    -2.0    -6.5    -4.0     1.3     5.3     6.7    -1.2    -4.9    -4.5
    -2.6     5.0     4.9     2.1     2.1    -4.2    -5.1     0.2     3.6     5.9
     2.1    -1.6    -2.3    -6.7    -3.5     5.3     6.0     5.4    -3.5    -8.7
    -2.0     0.1     3.8     5.5     2.7    -1.5    -5.7    -3.1     2.9     1.9
     3.6     4.7    -3.1    -2.3    -3.4    -3.6     4.4     6.0     2.5    -3.6
    -6.2    -1.1     0.3     2.5     8.1     1.8    -4.9    -5.4    -2.3     2.8
     1.4     2.6     3.0    -2.3    -4.2    -4.0    -1.1     5.1     3.9     1.5
    -0.2    -7.5    -5.3     2.4     4.2     5.6     0.8    -5.6    -3.8    -2.2
     2.1     3.4     1.6     3.1    -2.6    -5.1    -1.5    -0.9     3.1     5.9
     3.4    -2.1    -8.0    -3.3     3.9     4.9     5.4     0.7    -5.7    -5.3
    -3.7     2.5     8.0     2.6     0.7    -2.1    -6.3    -2.0     0.5     3.9
     6.7     0.4    -4.9    -5.4    -2.4     4.1     3.6     4.5     2.7    -7.8
    -7.6    -1.6     4.9     7.3     0.5    -1.8    -3.8    -6.2    -0.1     3.2
     4.5     3.6    -2.1    -2.5    -3.6    -4.5     4.8     9.4     2.7    -1.2
    -6.4    -5.7     1.6     5.1     6.6     0.2    -1.5    -1.7    -6.9     0.6
     7.3     1.6    -0.5    -2.7    -3.2    -1.3    -3.6     3.9     8.0     1.0
    -2.5    -4.8    -5.1     1.0     3.5     5.7     4.1    -5.6    -5.6    -3.4
     1.6     4.9     2.0     2.7    -0.4    -4.5    -4.9    -1.6     4.8     7.6
     0.2    -2.5    -0.9    -5.9    -1.8     5.9     6.0    -0.1    -7.2    -3.3
    -0.8    -0.3     6.1     3.0    -0.5    -3.3    -8.5    -0.9     4.6     2.0
     3.3    -0.3    -4.4    -4.0    -5.8     1.8     7.5     4.9     1.1    -6.5
    -5.0    -0.5     0.6     4.9     4.7    -2.5    -6.2    -5.3    -0.4     3.0
     1.7     4.5     0.4    -5.7    -4.9    -2.7     3.9     6.1     0.7     0.3
    -3.7    -7.9     0.3     3.6     5.7     5.1    -2.4    -5.1    -5.0     0.2
     4.5     2.3     1.2     0.8    -3.7    -3.6    -1.0     2.2     5.5     2.1
     1.0    -4.9    -8.1     2.9     6.1     2.3     3.7    -0.6    -6.2    -4.5
     0.7     6.0     2.3     0.3    -0.7    -5.4    -3.0     0.7     2.7     5.1
     1.8    -3.4    -3.1    -3.9     0.3     5.8     4.6     3.7    -2.1    -8.7
    -4.0     4.2     8.4     4.8    -1.6    -0.4    -5.4    -5.8     3.7     5.5
     3.7     0.2    -4.3    -4.0    -2.4    -0.2     5.9     5.0     0.9    -6.0
    -9.0     0.3     4.9     4.6     4.3     0.6    -6.0    -5.7    -0.9     5.8
     4.4     0.3     1.1    -6.0    -6.0    -3.1     0.2     6.1     3.9    -2.0
    -4.5    -4.3    -0.7     1.5     4.0     8.4    -3.3    -8.2    -1.7    -1.5
     3.3     5.2     0.5    -0.8    -4.6    -4.5     0.2     1.7     6.6     2.7
    -2.2    -3.5    -7.0    -1.4     5.9     5.2     3.5    -2.2    -7.8    -2.3
     0.2     3.3     6.6     3.3    -1.4    -6.4    -4.5     2.1     0.8     1.9
     5.9    -4.7    -5.3    -3.2    -3.1     4.8     4.8     2.7    -3.3    -7.3
    -2.9     2.3     5.2     7.1     2.1    -4.5    -4.9    -3.3     2.2     4.0
     3.0     1.7    -3.9    -6.8    -3.0     0.1     4.3     4.6     1.2    -2.4
    -8.7    -3.1     2.6     3.4     5.0     0.0    -5.3    -3.9    -2.4     1.9
     5.7     2.1     0.9    -4.5    -5.2    -0.2    -0.7     3.1     5.0     0.2
    -5.6    -7.5    -2.2     3.6     4.0     3.7     0.6    -5.5    -5.4    -3.1
     2.1     7.4     0.3    -1.6    -0.5    -5.5    -2.6     1.1     4.7     3.7
    -1.8    -3.2    -5.3    -3.2     3.7     4.1     1.4     1.5    -5.0    -6.6
    -2.6     3.6     7.7    -0.1    -2.2    -2.6    -4.7     0.3     4.1     3.4
     3.6    -2.3    -5.9    -3.0    -3.0     4.4     7.0     2.2    -0.8    -6.5
    -6.0    -0.4     3.9     7.0     2.2    -4.3    -4.5    -4.3    -0.7     6.3
     5.1     0.3    -2.7    -5.6    -3.1    -1.4     4.6     7.5     0.7    -0.7
    -6.3    -8.1     2.2     6.4     4.0     1.6    -5.7    -4.6    -1.4    -1.3
     7.0     4.3    -2.7    -5.2    -3.6    -0.3     0.2     4.5     6.0     0.2
    -4.6    -4.7    -4.7     3.3     5.8     2.5     2.3    -3.8    -5.8    -2.4
     4.2     7.1     2.5    -2.3    -2.2    -3.0    -0.7     3.6     3.4     5.2
    -0.9    -5.5    -2.5    -1.8     1.1     4.7     4.3     3.0    -5.6    -9.0
     0.9     3.3     3.8     1.2    -1.9    -3.0    -6.4    -1.7     4.8     3.7
     2.8    -0.2    -6.2     0.0     0.8    -0.2     6.1     4.8     0.4    -4.6
    -5.3    -0.9     3.3     4.9     4.6    -2.5    -6.0    -5.3    -3.0     6.9
     5.5     0.9     0.0    -5.7    -5.0     0.5     3.2     7.3     2.0    -2.8
    -3.1    -7.4     0.5     5.3     4.6     4.3    -2.8    -7.6    -3.4     2.1
     5.6     5.3    -1.4    -2.0    -6.3    -3.6     5.0     3.4     3.8     1.8
    -1.4    -4.1    -5.3     1.0     7.2     3.0     0.7    -2.8    -7.5    -2.3
     0.5     5.3     5.9    -1.1    -4.1    -4.7    -3.3     1.8     4.5     3.6
     1.5    -5.0    -3.8    -1.4     1.3     6.1     1.6     1.2    -1.1    -7.4
    -3.8     3.8     7.6     4.4    -3.4    -5.2    -3.5    -2.6     3.5     6.1
     3.6     0.4    -7.0    -3.9     1.1    -1.5     4.9     6.7     0.7    -3.7
    -7.6    -1.6     5.9     4.6     2.9     0.7    -4.1    -4.5    -2.8     4.4
     7.2     1.0    -2.4    -5.9    -1.4     1.2    -1.2     4.8     6.4    -2.5
    -7.3    -3.5     0.7     5.0     3.4     3.3     1.1    -8.1    -5.9     1.9
     7.7     6.0    -1.4    -2.7    -1.4    -3.1     0.4     3.0     4.8     5.6
    -6.9    -6.2     1.2    -0.7     2.3     5.3     5.8    -3.0   -11.3    -2.9
     4.5     3.8     4.3    -0.8    -3.4    -2.5    -4.5     1.9     5.9     3.4
    -0.1    -4.9    -3.7    -0.4    -0.3     3.5     6.2     1.6    -2.5    -7.1
    -4.3     3.8     4.0     4.7     2.0    -5.4    -5.9    -1.9     3.5     3.8
     0.7     1.1    -3.5    -6.6    -1.6     2.0     5.2     5.5    -1.5    -4.1
    -4.9    -3.9     3.4     7.4     6.2    -2.2    -8.0    -4.5    -0.8     2.3
     5.9     3.4    -0.5    -3.5    -6.0     1.3     4.0     1.9     3.0    -0.5
    -2.7    -5.4    -4.3     5.2     7.2     1.4    -3.2    -6.4    -1.7     1.5
     1.8     7.5     1.6    -5.9    -3.7    -3.9     0.8     5.2     2.1     2.0
    -1.8    -5.9    -3.5    -2.9     4.4     6.7     0.5    -0.1    -5.1    -7.0
     0.9     6.3     5.5     0.5    -4.7    -3.5    -2.2    -1.4     5.1     6.5
     2.3    -4.6    -6.7     0.4     0.4     0.6     4.6     1.1    -2.8    -5.4
    -4.7     2.8     6.2     2.8    -0.1    -3.2    -2.6    -3.9    -3.6     8.9
     8.3    -3.1    -5.3    -3.9    -0.3     0.1     2.1     7.3     2.0    -5.6
    -5.1    -4.1     3.2     7.0     2.0     2.9    -2.9    -7.1    -2.8     2.3
     8.5     3.6    -3.7    -2.1    -4.4    -3.3     4.8     4.8     6.0    -0.1
    -9.5    -3.6    -0.3     1.8     5.9     4.3     1.3    -5.6    -8.5     0.5
     5.2     5.5     4.6    -3.3    -5.3    -4.5    -1.1     6.4     4.0    -0.1
    -1.4    -3.9    -3.0    -2.9     1.8     7.0    -0.1    -2.6    -3.1    -6.6
     1.1     5.1     2.1     2.5    -2.5    -7.5    -5.4     0.5     6.4     2.7
     0.5    -0.1    -6.0    -4.2     1.1     2.9     4.1     1.1    -2.9    -2.7
    -5.8    -2.2     3.7     4.3     3.9    -5.3    -8.0    -1.4     1.2     4.8
     4.5    -1.2    -1.7    -5.0    -5.0     4.2     4.7     3.0    -0.2    -3.1
    -2.0    -5.2    -0.2     8.6     5.2     0.7    -1.2    -7.5    -2.7     3.8
     4.0     5.1    -0.4    -4.2    -5.4    -1.1     6.2     5.9     2.4     0.6
    -2.7    -3.6    -1.7    -1.2     6.7     4.6    -1.8    -3.3    -6.6    -1.1
     3.4     5.6     4.8    -4.4    -6.5    -1.9    -2.4     4.2     6.8     0.8
     0.0    -4.1    -3.8    -0.6     2.0     5.2     3.4    -1.7    -3.7    -3.9
    -3.7     3.6     5.1     2.8    -2.1    -6.5    -2.2    -0.4     3.2     5.3
    -0.3    -1.5    -2.7    -5.2     2.4     2.9     2.2     3.1    -3.2    -3.2
    -5.2    -2.1     6.4     4.5     1.4    -1.9    -7.3    -3.2     0.8     1.9
     6.0     2.1    -3.4    -7.4    -5.0     3.7     2.7     1.7     4.9    -2.8
    -6.2    -1.4    -0.7     6.0     5.4     0.1    -2.2    -7.1    -1.7     4.6
     4.2     5.7     1.7    -6.2    -4.3    -0.6     3.5     4.9     2.9     3.4
    -3.4    -5.6    -1.7     1.9     6.0     4.6    -1.7    -3.5    -3.1    -4.1
     4.3     7.4     4.2    -0.8    -7.3    -4.9    -0.9     4.1     6.2     1.1
    -1.0    -2.0    -5.4     1.1     3.9     1.8     3.5    -1.8    -3.0    -5.7
    -4.8     4.6     6.5     3.6    -2.3    -6.4    -3.6    -1.4     0.6     7.0
     3.0    -3.0    -3.3    -5.7    -1.0     4.9     4.1     2.1    -0.5    -3.8
    -3.5    -2.3     3.7     6.1     1.9     0.2    -6.2    -4.4     2.5     2.7
     4.4     2.3    -4.2    -4.4    -3.5    -0.8     5.6     4.6     1.8    -3.5
    -3.7    -0.6    -2.7     4.6     8.1     0.9    -3.8    -4.5    -3.4     0.3
     3.6     5.9     2.9    -6.0    -6.0    -2.8     1.8     6.6     2.4    -1.4
    -1.9    -3.2    -2.3    -0.2     4.6     7.8    -0.8    -3.6    -2.0    -4.4
     1.2     5.4     6.2     2.3    -7.1    -6.1     0.4     2.2     5.6     3.1
    -2.7    -3.2    -4.8    -1.7     3.8     4.2     2.3    -0.4    -2.7    -2.0
    -3.8     0.0     9.1     4.3    -1.7    -6.0    -4.8     1.3     0.6     3.7
     4.8    -0.7    -6.1    -7.1    -0.7     5.9     1.1     0.7     1.4    -6.7
    -5.6    -2.6     3.3     5.3     1.8     0.6    -5.1    -5.1    -2.0     1.4
     6.2     4.4    -6.2    -7.4    -1.5    -0.6     3.6     2.9     1.8     0.4
    -5.7    -4.7     0.2     2.9     4.8     1.5    -2.6    -2.2    -5.9     0.0
     7.8     4.5     1.0    -5.1    -5.8    -3.7     0.4     7.1     4.9    -0.2
    -2.2    -5.0    -3.9     2.6     2.5     3.6     2.6    -2.4    -2.9    -5.0
     0.8     6.2     3.9     2.1    -2.1    -5.4    -3.5     2.7     8.3     3.9
    -3.2    -1.0    -4.2    -3.5     4.9     3.8     2.5    -0.1    -6.0    -5.1
    -2.3     0.1     5.4     3.9     1.6    -2.6    -8.6    -1.3     3.4     4.2
     4.6    -2.0    -4.0    -3.7    -4.4     4.1     6.2     0.2     0.3    -4.7
    -3.2    -0.3    -0.6     6.3     3.9    -3.0    -4.7    -4.1    -1.4     3.0
     4.3     5.6    -1.1    -8.5    -3.9    -1.0     5.8     4.3    -1.0     0.9
    -4.5    -6.8    -1.8     4.3     5.8     0.9    -3.6    -2.5    -3.7    -3.0
     4.0     5.4     4.9    -3.3   -10.6    -0.9     4.6     2.1     4.1     2.9
    -1.6    -7.8    -5.9     5.5     4.1     2.3     2.9    -3.7    -4.0    -2.9
    -2.2     4.2     7.7     2.1    -4.7    -7.0    -1.5     1.2     1.7     6.6
     2.4    -3.9    -6.2    -3.3     6.1     4.5    -0.7     2.3    -2.2    -3.9
    -0.5    -0.6     6.4     3.7    -2.4    -2.3    -5.3    -1.9     2.5     4.1
     5.8     1.3    -6.6    -4.7    -0.8     4.3     6.9     1.0     1.3    -3.5
    -6.2    -0.9     2.0     4.5     3.8     0.0    -3.8    -5.4    -3.7     3.8
     3.7     3.2     1.5    -7.2    -4.3    -2.4     2.5     6.0     0.2    -1.8
    -2.9    -4.0    -0.6     3.2     2.8     3.8    -3.6    -6.3    -4.0    -4.4
     4.5     5.3     3.4    -0.2    -8.8    -6.6     1.5     4.8     6.2     2.0
    -4.3    -3.6    -5.2    -0.4     5.2     4.3     1.9    -3.7    -3.7    -3.0
    -3.3     2.6     7.0     1.0    -2.6    -5.6    -5.3     1.3     2.9     6.1
     1.2    -3.8    -4.6    -4.4     2.0     5.6     3.6    -1.0    -2.7    -5.2
    -1.5     0.6     3.6     7.0    -0.8    -2.9    -4.1    -4.1    -0.4     4.1
     6.9     2.5    -5.0    -4.2     0.5     1.0     7.0     3.2     0.0    -0.1
    -6.5    -0.8     3.4     3.2     4.7     0.1    -5.2    -3.9    -3.0     1.8
     5.0     4.4     3.3    -9.0    -7.0    -0.1    -0.6     7.0     6.4    -3.3
    -6.3    -3.9    -1.6     4.5     4.6     3.7    -1.1    -4.8    -0.9    -4.1
