Corrected Accelerogram  O90400A1    Institute of Geological & Nuclear Sciences  
Site 400A     041 05 44S  172 42 47E             Raw data file .. x97781.asc    
CDZ  Cobb Dam (north-west Nelson)                                               
Instrument: EARSS gain ranging recorder with Mark Products L4-3D 1.0 Hz geophone
Sensitivity: 0.178 volts/mm/s (Coil resistance: 5500 ohms)                      
Accelerogram O90400A1                              P Processed 2002 March 12    
Lake Tennyson Earthquake                                                        
1990 February 10    0327 UT                                                     
Epicentre  42 15 00S 172 39 00E  Bearing S02W  Dist  128km  Depth  13 km Mw 5.93
Number of points  8001    Duration 160.00 sec                                   
Sensitivity and cross-axis corrected data at 0.020 sec intervals                
High-pass filter transition band is  0.18- 0.33 Hz                              
Component N90E  Longitudinal Accelerometer Axis                                 
Acceleration:  peak    -34.9 mm/s/s at  22.46 sec     rms      2.8 mm/s/s       
Velocity:      peak    -2.94 mm/s   at  23.20 sec     rms     0.34 mm/s         
Displacement:  peak   -0.760 mm     at  23.40 sec     rms    0.107 mm           
    1990       2      10       3      27     420       0       0       0       0
      42      15       0     172      39       0      13       8       0       0
      41       5      44     172      42      47      90      90     182     128
    7501     250     250    8001    8001    8001       0       0       0       0
     0.0    0.00    0.00   0.000  0.0000   0.000   0.000   1.000     0.0    0.00
  41.096 172.713   42.25  172.65    5.80    6.04    5.93      0.      0.      0.
  150.00    5.00    5.00  160.00  0.0200  0.0200      0.      0.      0.  9807.0
   -35.3   22.46     2.9   0.000      0.   -34.9   22.46     2.8    38.4   1.758
   -2.94   23.20    0.34    3.04   0.485   -0.76   23.40    0.11    0.81   0.302
   0.180   0.150   0.330      0.      0.  25.000   0.000  25.000      0.      0.
  -0.001   0.003  -0.001   0.004   0.000   0.004   0.000   0.004   0.000   0.004
   0.000   0.005   0.000   0.005   0.001   0.005   0.001   0.005   0.001   0.005
   0.001   0.006   0.001   0.006   0.002   0.006   0.002   0.006   0.002   0.006
   0.002   0.007   0.002   0.007   0.003   0.007   0.003   0.007   0.003   0.007
   0.003   0.007   0.003   0.007   0.003   0.007   0.003   0.007   0.003   0.007
   0.003   0.008   0.003   0.008   0.003   0.007   0.003   0.007   0.003   0.007
   0.003   0.007   0.003   0.007   0.003   0.007   0.003   0.007   0.003   0.007
   0.002   0.007   0.002   0.006   0.002   0.006   0.002   0.006   0.001   0.005
   0.001   0.005   0.001   0.005   0.000   0.004   0.000   0.004   0.000   0.004
  -0.001   0.003  -0.001   0.003  -0.002   0.002  -0.002   0.002  -0.003   0.001
  -0.003   0.001  -0.004   0.000  -0.004   0.000  -0.005  -0.001  -0.006  -0.002
  -0.006  -0.002  -0.007  -0.003  -0.007  -0.003  -0.008  -0.004  -0.008  -0.004
  -0.009  -0.005  -0.010  -0.006  -0.010  -0.006  -0.011  -0.007  -0.011  -0.007
  -0.012  -0.008  -0.012  -0.008  -0.013  -0.009  -0.013  -0.009  -0.014  -0.010
  -0.014  -0.010  -0.015  -0.010  -0.015  -0.011  -0.015  -0.011  -0.015  -0.011
  -0.016  -0.011  -0.016  -0.011  -0.016  -0.011  -0.016  -0.011  -0.016  -0.011
  -0.016  -0.011  -0.015  -0.011  -0.015  -0.011  -0.015  -0.010  -0.014  -0.010
  -0.014  -0.009  -0.013  -0.009  -0.013  -0.008  -0.012  -0.007  -0.011  -0.006
  -0.010  -0.005  -0.009  -0.004  -0.008  -0.003  -0.006  -0.001  -0.005   0.000
  -0.003   0.002  -0.002   0.003   0.000   0.005   0.002   0.007   0.004   0.009
   0.006   0.011   0.008   0.013   0.010   0.016   0.012   0.018   0.015   0.020
   0.017   0.023   0.020   0.026   0.023   0.029   0.026   0.032   0.029   0.035
   0.032   0.038   0.035   0.041   0.038   0.044   0.042   0.048   0.045   0.051
   0.049   0.055   0.052   0.058   0.056   0.062   0.059   0.066   0.063   0.069
   0.067   0.073   0.071   0.077   0.075   0.081   0.079   0.085   0.083   0.089
  -0.133  -0.047  -0.139  -0.023  -0.115  -0.039  -0.121  -0.025  -0.117  -0.041
  -0.093  -0.057  -0.099  -0.033  -0.095  -0.009  -0.121   0.015  -0.107  -0.011
  -0.093   0.003  -0.099  -0.033  -0.055   0.001  -0.061  -0.025  -0.078   0.019
  -0.084   0.022  -0.080   0.026  -0.087   0.029  -0.073   0.013  -0.060   0.026
  -0.046   0.039  -0.063   0.063  -0.100   0.056  -0.057   0.039  -0.064   0.052
  -0.051   0.044  -0.049   0.057  -0.066   0.079  -0.054   0.072  -0.031   0.014
   0.001   0.046  -0.047   0.078  -0.025   0.050  -0.023   0.042  -0.001   0.054
  -0.030   0.076  -0.038   0.067  -0.017   0.048  -0.005   0.070  -0.044   0.101
  -0.053   0.102  -0.052   0.073  -0.021   0.073  -0.020   0.074  -0.020   0.065
  -0.009   0.065  -0.009   0.036   0.031   0.036   0.032   0.046  -0.028   0.076
  -0.008   0.076  -0.028   0.056  -0.018   0.066  -0.018   0.056  -0.049   0.036
  -0.049   0.095  -0.029   0.065  -0.060   0.084   0.010   0.034  -0.101   0.033
  -0.081   0.103  -0.102  -0.058  -0.212   0.082   0.017   0.231  -0.124   0.040
  -0.044   0.000  -0.135   0.129  -0.136   0.128  -0.106  -0.123  -0.247  -0.073
   0.152   0.356  -0.009  -0.025  -0.319   0.025  -0.160   0.144   0.209   0.003
  -0.421  -0.517  -0.442   0.042   0.078   0.602   0.587   0.341  -0.404  -0.720
  -0.704  -0.320  -0.135  -0.011  -0.395  -0.601  -0.466   0.879   1.334   1.028
  -0.176  -1.132  -1.497  -1.423  -1.507   0.647   1.763   2.157   1.212  -0.213
  -0.358   0.576  -0.268  -0.434  -1.158  -1.104   0.202   1.106   1.542   1.286
   0.152   0.206   0.331   1.586   0.111  -0.624  -1.379  -0.364  -0.249  -0.354
  -1.289  -0.384   1.281   2.946   0.931   0.666  -0.969  -2.454  -3.788  -2.774
  -0.368   2.576   0.932   0.366   0.682   0.936   0.692  -0.574  -0.148   1.046
   1.352  -0.684  -1.008  -1.064  -0.078   1.736   2.102   2.836   2.232  -0.384
  -1.148  -2.354  -1.168   1.196  -0.638  -1.294  -2.638   0.676  -0.278   0.536
   2.522  -0.014  -1.289   1.206   0.081   2.605   1.331  -1.735  -2.139  -5.745
  -3.229   0.065   1.750   1.995  -1.210  -3.036  -0.420   0.084  -0.151  -1.087
   1.899   0.063  -3.081  -2.627   1.218   6.482   6.988   1.772  -0.463   0.131
  -1.563  -1.999  -2.214  -0.940   1.936   0.990   0.285   0.489  -2.006  -0.662
   2.714   2.998   0.213  -4.123  -5.118  -3.604   2.742   6.536   6.591   3.505
  -1.220  -4.526  -5.360  -5.396  -1.881   0.033  -1.302  -2.148  -1.053   5.441
   9.237   5.811  -3.064  -6.420  -8.465  -3.531  -1.536  -3.462  -2.716   2.067
   6.393  10.627   6.082   2.806   1.841   0.995  -3.300  -4.456  -3.460  -2.486
  -0.741   1.513   0.918   4.112   5.668   1.801   0.387  -1.289  -2.194  -5.130
  -4.855   1.249   5.725   5.049   2.134  -0.862  -2.017  -4.873  -1.837   3.877
   6.902   3.386  -4.188  -6.764  -5.179  -2.425  -1.469  -1.345   0.430  -3.466
  -7.200  -2.296   3.259   7.703   7.249   0.473  -4.022  -1.938   2.828   4.362
  -0.232  -4.208  -4.113  -2.799   0.977   4.361   3.667   0.811  -2.323  -2.189
   0.636   3.571  -1.484  -3.829  -3.814  -2.800   4.596  10.620  11.986   2.460
  -5.784  -2.970  -1.914  -0.800   0.166  -0.639   2.646   0.891  -5.023  -4.069
  -0.853   0.341  -1.693   0.821   1.767  -0.228  -3.492  -5.618  -0.112   3.673
   2.189  -2.487  -0.931   4.354   2.260   0.224  -2.150  -2.525  -0.479  -1.245
  -2.298   1.446   3.632   1.817   3.453   2.408   3.154   1.299  -1.095   1.380
   1.926   0.381   0.197  -2.308  -2.452  -0.737   0.479   0.304   0.550  -0.445
  -1.948  -3.893  -2.617  -1.242   0.154  -1.951  -3.324  -1.919  -0.383  -0.388
  -2.291  -3.506  -1.070  -0.645   0.882   0.427   1.063   1.969   2.315   2.580
   2.377   3.112  -1.951  -5.206  -1.920  -0.344   1.192  -0.032   2.114   5.169
   7.156   4.271   5.368   5.553   7.080   6.065   0.422  -3.823  -2.936  -2.081
  -5.034  -5.679  -3.832  -4.487  -4.570  -3.454   0.092   3.658   2.394  -0.750
  -2.774  -0.528   2.488   3.584   0.270  -3.464   1.773   3.518   2.115   1.270
  -1.823  -6.428  -9.162  -2.796   4.540   3.766  -1.398  -5.062  -5.766  -4.811
  -2.924  -0.619   2.348   6.293  10.279   2.595  -1.699  -0.384   1.763   7.708
   8.304   3.949  -0.284  -3.089  -3.903   0.452   3.408   1.333  -1.230  -3.016
  -3.179  -3.854  -0.658  -2.433  -5.967  -5.432  -2.856  -1.132   1.594  -1.131
  -5.125  -3.880  -0.524  -0.750  -3.774  -1.389   4.847   5.931   4.737   2.841
   4.547   3.472   0.537  -0.058  -1.093  -0.188   4.137   2.872   0.127  -2.079
  -4.813  -6.699  -1.704   3.861   3.596   0.490  -4.645  -5.101   1.115   5.879
   7.954   5.668   2.163  -1.443  -3.048   0.886   1.961   2.375   2.780   2.353
   3.438   2.402   1.807   0.281  -4.504  -7.241  -4.046   1.058   3.973   1.616
  -2.979  -8.066  -6.871  -3.418  -0.163   2.391   1.835  -0.071   0.173   0.677
  -0.279  -0.926   1.999   3.672   1.687  -0.450  -2.545  -1.942   2.232   5.875
   6.590   4.033   0.457  -2.379  -6.195  -8.462  -6.198  -2.815   1.420   4.873
   6.067   4.410   0.564  -4.803  -3.888   0.395   3.909   3.242  -1.454  -4.151
  -3.057  -2.494  -2.500   0.693   0.657  -1.930  -3.576  -3.963  -3.679  -2.936
   0.928   3.501   4.125   4.368   1.402   0.225   3.959   2.891   3.206   1.998
  -2.968  -7.385  -9.011  -5.818  -0.794   0.648   3.403   6.315   7.089   6.352
   0.926  -3.251  -0.907   4.825   4.249  -1.778  -1.654   0.618   0.112   0.345
  -0.251   0.352  -1.834  -5.832  -4.448  -0.445   2.479  -3.268 -10.154  -7.632
  -0.738   2.645   0.969  -0.018   1.336   3.328   4.552   2.725   1.839   1.552
   1.846   0.289   0.233   0.076   2.030   3.702   4.397   2.630   0.254  -2.563
  -6.419  -4.256  -1.462  -0.059  -1.225   1.388   4.223   6.246   6.970   4.703
   2.058   0.261   0.586   2.239  -1.696  -5.553  -4.088  -1.915   1.460   0.903
  -2.892  -6.198  -3.883  -0.249   1.146  -1.541  -0.235   0.969  -0.576  -2.332
   0.093   0.567   1.743   2.117   2.523   5.197   3.693  -3.173  -3.477  -1.312
  -1.616  -2.792  -7.095  -6.071  -0.234   4.471   4.687   1.952  -1.821  -3.826
  -2.609   0.956   3.203   3.269   1.646   0.651   0.938   3.904   5.342   3.418
   1.625   0.831  -2.001  -4.925  -4.707  -4.831  -3.593  -1.236  -2.118  -0.931
   1.557   2.794   1.992   1.249   0.528   2.715   2.573   3.071   3.879   0.317
  -2.464  -3.237  -0.388   1.590   1.029   0.367  -3.304  -6.896  -6.047  -3.849
  -1.070   0.038   0.588  -1.364  -2.845  -3.827  -2.747   0.221   0.571   0.629
   0.828   1.907   0.956  -2.555  -2.396   0.443   5.312   9.140   7.500   3.808
  -1.352  -3.724  -1.704   1.394   2.283   1.451  -2.699  -2.261   0.698   1.176
   0.525   3.623   5.132   1.220  -3.201  -6.903  -7.975  -4.027  -1.258   0.389
   1.997   7.024   2.893  -2.211  -3.042  -2.016   1.722   5.109   6.276   3.902
   1.440   0.136   0.853   2.499   1.896  -0.509  -2.162  -4.657  -5.781  -2.086
   2.810   3.775   2.061  -0.725  -1.450  -0.576  -0.871  -3.497  -3.512  -2.489
  -1.755  -1.282   2.403   5.225   5.559   0.831  -2.685  -5.343  -5.670  -0.809
   3.304   4.725   3.778  -3.081  -7.859  -6.259   0.273   6.103   7.385   6.935
   6.036   2.696   1.256   0.766  -0.364  -1.785  -2.245  -0.496   1.664   2.593
   1.152  -1.930   2.480   6.718   6.097   1.865  -4.376  -5.639  -2.210  -0.093
   2.046   0.693  -5.619 -10.472  -9.913  -3.436   1.612   2.078  -0.323  -0.177
   0.711   1.888   3.556  -0.048  -2.830  -6.233  -5.535  -0.679   0.809  -0.454
   1.144   3.700   4.378   4.235   3.593   1.360  -0.662  -5.005  -4.146   2.041
   4.940   4.307  -1.424  -5.926  -4.617   2.421   7.950   5.938   3.778   3.006
   0.567   1.335   3.026   1.955   1.086  -1.705  -4.694  -7.194  -6.082  -7.972
 -14.080 -15.349 -11.186  -1.515   6.908   8.610   4.913  -2.154  -5.100  -5.827
  -6.483  -6.859  -9.274 -10.930  -8.464  -4.370  -3.334  -3.538  -0.302   3.154
   8.792  16.128  18.686  16.983   9.742   0.629  -2.491   0.207   2.977   0.066
  -1.784  -2.204   0.317   3.687   5.019   6.659   4.592  -0.717  -0.774   2.258
  -0.288  -5.046  -6.082  -4.289  -1.604  -2.711  -0.245   3.959   7.615   6.259
   0.975   2.821  11.837  16.023  10.720  11.306  13.434   6.510  -6.342 -16.135
 -14.866  -6.749   3.020   7.007   4.976   0.474   0.064   3.782   2.202  -1.710
   0.310   5.498   8.288   2.317  -2.853  -5.824  -9.614  -6.545   0.106   9.445
  13.405   4.204 -13.085 -19.127 -18.496 -10.837  -3.357  -5.468 -11.398 -13.490
 -10.490  -5.461  -1.532   5.617   9.106   6.944   4.253  -3.479  -9.091  -4.533
   3.935  10.342   8.710   4.966   5.324   2.490  -2.493   0.022  -0.131  -7.977
 -13.941  -9.396  -2.841  -4.277 -10.013 -10.250  -2.626   6.987   5.800  -1.928
  -5.006  -4.405   0.487   5.217   6.338   4.398   6.708   9.636  10.726  13.733
  10.702   6.049   6.037   3.703   0.980  -1.605  -1.559  -1.155   0.470   4.133
   3.058  -2.280 -11.807 -17.555  -7.223   7.778   7.479  -6.421 -15.080  -7.592
   6.418  12.356  11.425  10.262  10.070  11.666   6.623  -5.602 -11.676  -7.912
  -1.307   6.067   6.151  -3.116 -12.083  -9.861  -0.188   8.773  11.735   7.515
   9.537  18.776  18.927   7.825  -2.905  -8.067  -8.558  -3.170   6.868  14.435
   8.153  -8.001 -27.184 -34.878 -23.981  -6.536   5.430   4.545  -5.249 -14.875
 -14.770 -12.296 -11.391  -1.647   6.507   1.130  -0.375   4.758  10.292  10.234
   7.938  -1.819  -7.516  -9.673  -7.130  -3.048  -3.114  -9.512 -10.938  -8.836
  -8.513 -10.541  -8.097  -3.225  -1.681  -4.549  -8.955  -8.512  -7.898  -6.606
   1.369  11.371  15.056  10.669   7.644   5.878  10.913  21.517  28.503  27.577
  19.903  10.088   4.844   6.250   8.277   9.623   9.060  10.727  11.155  12.922
   5.451  -4.181  -5.652   4.237  14.607   6.476 -10.423 -18.183 -16.992 -13.761
 -10.259   0.043   9.746   9.598   6.822   8.445   7.250   4.304   1.779   3.594
  10.311  13.206   4.234 -10.080 -22.621 -23.754 -11.975  -2.526   1.174  -1.617
  -5.176  -6.476  -7.624  -7.152  -6.649  -3.717  -3.363  -8.730 -15.955 -16.381
  -9.445  -4.370  -0.454  -1.038  -2.520  -1.423  -1.614  -6.267  -6.247   2.422
  11.072  13.372   9.903   7.084   8.306   4.848  -1.329  -2.827  -4.693  -9.810
 -12.985 -13.441 -13.015 -15.811 -20.184 -23.608 -15.681  -2.385   7.363  10.490
  11.839  14.357  15.446  14.975  15.635  13.984  13.605  10.795   2.066  -0.283
   4.969   9.560  11.212   7.414   3.417  -2.061  -8.668  -7.915  -1.031   2.982
  -1.614  -6.811  -8.476  -8.962  -4.047   3.697   8.233   6.727   2.053  -2.593
  -0.697   4.048   5.874   2.749   0.006   0.131   4.307   3.723  -2.171  -7.165
  -7.349  -6.133  -2.417   8.518  14.515  10.420  -1.123 -11.378 -14.971 -12.106
 -10.690 -10.395  -9.039  -3.324   3.432   6.166   6.472   6.936  12.032  18.595
  18.651  10.194   0.859  -1.298   2.406   7.579  12.243  10.246   1.819  -2.229
  -0.556  -1.275  -6.482  -6.881  -2.799   4.871  11.052   5.562  -6.317 -14.338
 -14.208  -6.699   2.120   9.258   5.997  -4.246 -16.417 -24.351 -19.743  -6.228
   4.219   6.494   5.160   4.944   4.210   3.443   8.388  16.310  16.354   5.696
  -7.041 -13.140 -14.208 -13.848 -13.916 -16.137 -18.876 -18.428 -18.218 -15.340
  -7.711   1.046   3.693   0.340  -1.383   2.262   7.338   8.183   4.348   1.172
   1.987  -0.271  -2.227   0.505   8.058  11.419  10.032   6.452   5.933   8.893
  12.504  15.493  15.702  10.681   0.910  -6.393  -4.455   4.272   7.680   5.026
   4.143   3.708   3.294   2.759   4.884   5.658   1.073  -6.313  -9.809  -6.046
   2.028   5.850   4.773   2.445   0.908  -0.371  -2.339  -3.668  -6.156 -11.566
 -15.505 -14.695  -8.654   1.695   5.216  -1.235  -5.184  -3.476  -1.356  -4.507
  -6.297  -4.809   2.920  10.188  10.888   6.875   0.435  -3.898  -2.459  -0.571
  -3.082  -8.725  -9.106  -4.008   0.801   0.868  -1.193  -2.935  -1.336   0.211
   0.450   1.778   4.687   7.175   8.284   6.682   1.802  -3.790  -6.921  -4.842
   2.098  10.526  12.177   7.725   2.446  -0.445  -0.204  -1.184  -3.823  -4.373
  -5.042  -5.971  -4.889  -1.568   1.064   3.065   1.408  -3.500  -6.987  -4.285
  -0.851   0.102  -1.584  -3.301  -1.886   2.898   5.723   5.058   2.164   2.429
   3.965   2.971   2.338   1.494   2.471   5.538   5.826   4.004   0.772  -2.190
  -4.010  -5.032  -4.372  -2.363  -1.942  -3.322  -4.011  -5.431  -6.259  -6.098
  -2.805  -0.054   1.079   1.751   4.385   8.068  11.402  13.895  10.900   6.164
   7.090   9.514  11.780  11.885   6.331  -2.153  -7.746  -8.230  -8.432  -8.426
  -8.218  -7.341  -3.482  -0.545  -0.866  -3.458  -6.869  -6.440  -3.890  -4.942
  -9.011 -11.642  -9.692  -5.132  -0.241   1.719   2.030   3.390   4.892   3.392
   0.124  -2.165   0.547   5.728   7.371   4.352  -1.395  -2.804  -0.591   2.551
   6.694   8.046   6.069   3.471   3.974   3.206  -0.310  -3.568  -2.155  -0.093
   0.521  -0.207  -0.923  -1.971  -3.167  -2.815  -1.491  -0.319   1.615   2.167
   1.611  -0.197  -2.254  -3.972  -4.658  -4.696  -3.643  -2.311  -0.907  -0.476
  -2.372  -5.021  -4.838  -2.126  -0.493  -0.372  -1.989  -2.378  -1.655  -1.544
  -2.562  -3.221  -2.679   0.792   3.394   2.484  -0.124   0.286   3.048   5.518
   6.499   6.539   5.680   5.560   3.871   1.690  -0.119  -0.520  -0.830  -0.771
   0.649   2.168   2.458   1.856   1.526   2.184   2.214  -0.758  -2.439  -1.231
   0.058   0.085  -0.656  -0.208  -0.160   0.047   0.386   0.953   0.391  -0.332
  -0.914  -2.118  -2.150  -0.464  -0.466   0.670   2.527   4.063   5.861   5.846
   3.643   1.219  -0.524  -1.028  -0.012   0.554  -0.910  -3.834  -6.538  -5.923
  -2.906  -1.572  -3.005  -3.840  -2.874  -2.339  -3.403  -2.039   2.267   8.042
  11.928  11.622   6.878   1.462  -1.082  -1.598  -2.682  -3.918  -4.892  -4.868
  -4.102  -3.178  -1.143  -0.439   0.437   1.631   0.546  -2.200  -4.374  -3.750
  -0.705   3.109   6.204   6.708   4.213   0.327  -2.367  -1.644   0.452   0.416
  -2.359  -6.155  -6.850  -4.876  -2.951  -0.948   1.458   2.071   0.666  -0.510
   1.995   5.839   7.334   4.918   0.753  -0.134   0.831   1.165   0.980   0.204
  -1.391  -3.538  -3.853  -3.110  -3.685  -5.391  -6.296  -5.813  -4.378  -3.375
  -3.410  -4.687  -4.242  -2.189  -0.874  -0.581   0.254  -1.233  -3.289  -1.376
   2.899   5.772   6.126   4.409   3.543   3.276   2.110  -0.137  -0.483   1.350
   2.034   0.877   0.191  -0.207  -0.503  -0.620   1.353   4.016   6.249   6.342
   2.175  -1.253  -1.159  -0.497   0.087   1.099   1.962   3.984   5.127   3.579
   2.482   2.024   0.347  -1.832  -2.619  -1.737  -0.724   0.337   1.800   4.071
   5.304   3.665   1.878   2.619   4.962   5.083   3.206  -0.783  -3.561  -3.010
  -0.458   0.883  -0.614  -2.683  -2.251  -0.800   0.022   0.123  -2.125  -4.614
  -4.562  -1.981   1.251   3.192   2.904   1.135  -0.033   0.337   0.100   0.220
   0.502  -0.087  -1.575  -3.404  -2.972  -0.261   2.341   1.792  -1.476  -3.685
  -2.643  -1.442  -0.999  -0.478  -0.706  -0.365  -0.633  -2.461  -4.239  -3.878
  -3.285  -3.184  -3.441  -3.120  -2.767  -3.545  -6.502  -9.301  -7.328  -3.116
   0.357   1.889   1.572  -0.276  -1.792  -2.860  -1.846   0.656   3.200   3.512
   3.046   2.498   0.922   0.295   1.069   0.732  -0.023  -0.910   0.244   2.607
   4.022   2.665  -0.580  -3.456  -2.971  -0.938   0.688   0.621  -0.083  -0.799
   0.046   1.520   2.326   1.531  -1.594  -2.839  -1.823   0.342   1.928   2.083
   1.459   1.184   0.860   1.226   2.422   4.988   6.804   6.780   4.147   0.072
  -2.941  -3.235   0.132   3.748   4.475   2.311   2.119   2.865   2.503   0.479
  -1.564  -2.087  -0.649   0.137  -0.005  -1.339  -3.101  -2.584   0.684   3.611
   4.689   4.665   4.254   5.180   6.119   4.226   0.374  -0.549   1.859   3.956
   2.974  -0.449  -3.360  -3.263  -1.205   1.082   2.161   0.488  -2.974  -3.897
